{
"type": "FeatureCollection",
"name": "congressional",
"crs": { "type": "name", "properties": { "name": "urn:ogc:def:crs:OGC:1.3:CRS84" } },
"features": [
{ "type": "Feature", "properties": { "AREALAND": 20968766289, "AREAWATER": 313016724, "BASENAME": "8", "CDSESSN": "119", "CDTYP": "O", "CENTLAT": "+38.7485667", "CENTLON": "-087.1437122", "FUNCSTAT": "N", "GEOID": "1808", "HU100": null, "INTPTLAT": "+38.7447477", "INTPTLON": "-087.1404934", "LSADC": "C2", "MTFCC": "G5200", "NAME": "Congressional District 8", "OBJECTID": 383, "OID": "2116635951821143", "POP100": null, "STATE": "18", "CD119": "08" }, "geometry": { "type": "Polygon", "coordinates": [ [ [ -87.700786000091128, 37.897419999784091 ], [ -87.700467000248906, 37.898890000254632 ], [ -87.699955000062829, 37.926197999767894 ], [ -87.699601999885402, 37.929394999669427 ], [ -87.699149999973798, 37.96742100032187 ], [ -87.697817999630061, 38.032378999718439 ], [ -87.697732000314645, 38.061108999829393 ], [ -87.696774999889655, 38.124843000087751 ], [ -87.688918000241458, 38.124710000131522 ], [ -87.68837400026834, 38.168419000210065 ], [ -87.654391999694639, 38.168224999924711 ], [ -87.615132999596298, 38.167509999864826 ], [ -87.577996999687016, 38.167425999820182 ], [ -87.577958000227284, 38.166929000165126 ], [ -87.536185000127631, 38.166911000222072 ], [ -87.527064999732673, 38.166353999864818 ], [ -87.499599000039254, 38.165739999946247 ], [ -87.467284000443371, 38.165403000114097 ], [ -87.468117000121495, 38.125518999775345 ], [ -87.467912999907, 38.12172899982405 ], [ -87.472093000162872, 38.121740999682423 ], [ -87.472579000409681, 38.092016000013054 ], [ -87.47249900004374, 38.078162000349188 ], [ -87.473217000094138, 38.042323000231292 ], [ -87.473011000229818, 38.03513500020609 ], [ -87.461220000373032, 38.034944999947427 ], [ -87.44986700018417, 38.035170000218578 ], [ -87.450027000017741, 38.030650999933691 ], [ -87.449411000074576, 38.003845000319799 ], [ -87.450283000110787, 37.983674999979087 ], [ -87.450011000124206, 37.97663800023318 ], [ -87.450707000433312, 37.947762999878947 ], [ -87.45121899972105, 37.940808000143313 ], [ -87.462089000036173, 37.935474999722885 ], [ -87.469328000091394, 37.930663999711051 ], [ -87.469294999581109, 37.930076999821424 ], [ -87.470578000419366, 37.929731000229502 ], [ -87.476348999688412, 37.926529000241686 ], [ -87.480766999595659, 37.923580999702388 ], [ -87.487501999860726, 37.91808199972013 ], [ -87.497630999660899, 37.910698999964964 ], [ -87.503467000125596, 37.907893000083391 ], [ -87.506364000441565, 37.907035000319716 ], [ -87.506537999620505, 37.906676999664114 ], [ -87.510567000263663, 37.906081000201162 ], [ -87.517903000403265, 37.911082000270284 ], [ -87.521999000095235, 37.913307999864912 ], [ -87.53176700022037, 37.916303000028805 ], [ -87.548700999707506, 37.923972999670056 ], [ -87.556045000243031, 37.928167999771844 ], [ -87.560895999795335, 37.932113000290407 ], [ -87.564664000322551, 37.93583400019908 ], [ -87.569083999879624, 37.941560000120411 ], [ -87.572792000132409, 37.94847699994795 ], [ -87.573567000084196, 37.951721999724164 ], [ -87.577511000338546, 37.951661000322481 ], [ -87.575141000277256, 37.95548899979314 ], [ -87.574233000256058, 37.961146000339731 ], [ -87.574403999960296, 37.963576999797297 ], [ -87.575353999814297, 37.966661000310076 ], [ -87.576887999824379, 37.969133999939714 ], [ -87.578230000213836, 37.97053999984945 ], [ -87.582936000001183, 37.973586000317518 ], [ -87.587408000335117, 37.975276000078395 ], [ -87.594844000033817, 37.975109000245254 ], [ -87.597763999915998, 37.973896999972204 ], [ -87.600101000365299, 37.972506999799592 ], [ -87.601731999561451, 37.970775000237033 ], [ -87.603402999838906, 37.966813999790332 ], [ -87.603464999763176, 37.959897999846355 ], [ -87.603904999979221, 37.95698699967884 ], [ -87.604906999711744, 37.954518000249337 ], [ -87.604941999871841, 37.952584000184068 ], [ -87.605813000083131, 37.949610999963504 ], [ -87.607217000396872, 37.947668999825211 ], [ -87.610271000173356, 37.944801999924032 ], [ -87.622428999552952, 37.936203000072972 ], [ -87.617403999923368, 37.938269999646351 ], [ -87.61777100034449, 37.936047000098881 ], [ -87.619322000073026, 37.933180999958587 ], [ -87.620867999778682, 37.931424999948426 ], [ -87.624596999947826, 37.930278000026441 ], [ -87.626411000340411, 37.927928000095037 ], [ -87.627269000132898, 37.924837999917273 ], [ -87.627316999813473, 37.920401999706172 ], [ -87.62536799970168, 37.915516999922048 ], [ -87.62396500011117, 37.913458999897863 ], [ -87.621786999670519, 37.91139700030584 ], [ -87.62194800022732, 37.909528000106498 ], [ -87.619824000213342, 37.906846000028295 ], [ -87.613058999811059, 37.902164000325477 ], [ -87.609948999958078, 37.900326000066386 ], [ -87.606917999747822, 37.898997000012066 ], [ -87.595887999599157, 37.892001000051813 ], [ -87.587141000371432, 37.884858000101019 ], [ -87.584989999694955, 37.881178999938548 ], [ -87.583736999892253, 37.878080000202672 ], [ -87.583925000213242, 37.872484999730951 ], [ -87.586303999597021, 37.872492999923232 ], [ -87.586392000358885, 37.870542000170602 ], [ -87.588035999973826, 37.868983999749979 ], [ -87.588085000377632, 37.867480000094645 ], [ -87.589201999737881, 37.863744999828015 ], [ -87.590255000422346, 37.863453000129624 ], [ -87.591114999864658, 37.862134000353947 ], [ -87.591432000057068, 37.860754000035769 ], [ -87.591196999880438, 37.859658000210096 ], [ -87.590267000117919, 37.858589999976395 ], [ -87.594741000101649, 37.853389000004846 ], [ -87.597840999908897, 37.847651999758355 ], [ -87.60078000005764, 37.845481000195178 ], [ -87.606552999874836, 37.838696000185799 ], [ -87.609886000208888, 37.836331000277305 ], [ -87.612446000240951, 37.833608000039554 ], [ -87.615345000206716, 37.831882000192259 ], [ -87.620989000152491, 37.83014299990144 ], [ -87.627274999980685, 37.828671000261508 ], [ -87.640711000175628, 37.82643999982794 ], [ -87.653098999708988, 37.826038000106358 ], [ -87.67034400043903, 37.827961999830904 ], [ -87.673763000088499, 37.82962299971603 ], [ -87.679411000232221, 37.836525000183009 ], [ -87.679685999693532, 37.838177000292752 ], [ -87.680597000087758, 37.840025000089142 ], [ -87.680998999770679, 37.844550000144693 ], [ -87.682097999587569, 37.846783000250213 ], [ -87.681382000085307, 37.851200999654601 ], [ -87.681684000209103, 37.856273000086908 ], [ -87.680814999647637, 37.857970000272161 ], [ -87.677792999658237, 37.861179999940113 ], [ -87.676328999968348, 37.864640000315219 ], [ -87.674678999607295, 37.86669499973474 ], [ -87.674420000039518, 37.867693999974357 ], [ -87.669876999560486, 37.874840999660272 ], [ -87.669291999579485, 37.875329999672481 ], [ -87.666714000004063, 37.880037999903934 ], [ -87.664032999598177, 37.887477000133963 ], [ -87.66464000021881, 37.891048000308075 ], [ -87.665373000337823, 37.893351000288909 ], [ -87.666840000400768, 37.895762999802791 ], [ -87.669326999739582, 37.89815899991018 ], [ -87.673927999944937, 37.901159000182176 ], [ -87.679956000030259, 37.903220000198104 ], [ -87.682443000267384, 37.903616000053603 ], [ -87.684414000120483, 37.903665000173923 ], [ -87.688177999551442, 37.902697999839148 ], [ -87.69590799987634, 37.898858000316814 ], [ -87.700786000091128, 37.897419999784091 ] ] ] } }
]
}
