{
"type": "FeatureCollection",
"name": "state_senate",
"crs": { "type": "name", "properties": { "name": "urn:ogc:def:crs:OGC:1.3:CRS84" } },
"features": [
{ "type": "Feature", "properties": { "AREALAND": 1538396533, "AREAWATER": 33294945, "BASENAME": "49", "CENTLAT": "+38.0249177", "CENTLON": "-087.7884467", "FUNCSTAT": "N", "GEOID": "18049", "HU100": null, "INTPTLAT": "+38.0192907", "INTPTLON": "-087.7865060", "LDTYP": "O", "LSADC": "LU", "LSY": "2026", "MTFCC": "G5210", "NAME": "State Senate District 49", "OBJECTID": 570, "OID": "2129042393386266", "POP100": null, "SLDU": "049", "STATE": "18" }, "geometry": { "type": "Polygon", "coordinates": [ [ [ -87.700786000091128, 37.897419999784091 ], [ -87.700467000248906, 37.898890000254632 ], [ -87.699955000062829, 37.926197999767894 ], [ -87.699601999885402, 37.929394999669427 ], [ -87.699149999973798, 37.96742100032187 ], [ -87.697817999630061, 38.032378999718439 ], [ -87.697732000314645, 38.061108999829393 ], [ -87.696774999889655, 38.124843000087751 ], [ -87.688918000241458, 38.124710000131522 ], [ -87.68837400026834, 38.168419000210065 ], [ -87.654391999694639, 38.168224999924711 ], [ -87.615132999596298, 38.167509999864826 ], [ -87.577996999687016, 38.167425999820182 ], [ -87.577958000227284, 38.166929000165126 ], [ -87.536185000127631, 38.166911000222072 ], [ -87.527064999732673, 38.166353999864818 ], [ -87.499599000039254, 38.165739999946247 ], [ -87.467284000443371, 38.165403000114097 ], [ -87.468117000121495, 38.125518999775345 ], [ -87.467912999907, 38.12172899982405 ], [ -87.472093000162872, 38.121740999682423 ], [ -87.472579000409681, 38.092016000013054 ], [ -87.47249900004374, 38.078162000349188 ], [ -87.554728999792829, 38.07942799982267 ], [ -87.541199999711452, 38.04090899985961 ], [ -87.542405999658499, 38.040093999966494 ], [ -87.541613000163338, 38.039031999947312 ], [ -87.542065000074956, 38.036558999785939 ], [ -87.546908999954539, 38.029637000044509 ], [ -87.546466000263777, 38.027407000165489 ], [ -87.546863999748709, 38.01572499997112 ], [ -87.550059999815389, 38.013941999737241 ], [ -87.54940500041252, 38.012491999725697 ], [ -87.549841000430618, 38.010972000311064 ], [ -87.55096600018679, 38.009666000067057 ], [ -87.548164000305391, 38.009048000172754 ], [ -87.545637999710195, 38.006634999659816 ], [ -87.542131000197202, 38.005958999865939 ], [ -87.541090999931498, 38.004480999822349 ], [ -87.540141000077526, 38.00395200021363 ], [ -87.538051000398738, 38.004308000264587 ], [ -87.536369000250644, 38.005916000217972 ], [ -87.535021999838307, 38.006102000110751 ], [ -87.533584000087686, 38.005776000086357 ], [ -87.530418999983127, 38.004058999951326 ], [ -87.52713500005288, 38.000234999704496 ], [ -87.527432000153809, 37.997947000113264 ], [ -87.529720000199305, 37.998057999758309 ], [ -87.529100000058207, 37.997183000065291 ], [ -87.529157999784516, 37.991692999795099 ], [ -87.526386999865252, 37.99165400026655 ], [ -87.52685300002058, 37.990719999717193 ], [ -87.529234999777401, 37.988742999707966 ], [ -87.529373999694585, 37.973544999882172 ], [ -87.524739999877269, 37.973504000132124 ], [ -87.524400999943552, 37.972729000134251 ], [ -87.52441000016438, 37.969877000161418 ], [ -87.532399000057055, 37.969945000296043 ], [ -87.53249299976838, 37.966332999947205 ], [ -87.524515999571264, 37.966245000222386 ], [ -87.524610000180928, 37.961255000300866 ], [ -87.524821999893035, 37.96091100029556 ], [ -87.526273000062432, 37.960909000171434 ], [ -87.527377999727122, 37.95991599979309 ], [ -87.527376999902231, 37.959064999924863 ], [ -87.52537199971394, 37.959045000302886 ], [ -87.526929000188559, 37.957643999668491 ], [ -87.527022999899884, 37.955260000190009 ], [ -87.529752999811265, 37.955303999918641 ], [ -87.529869999987142, 37.944468000107165 ], [ -87.532650999952139, 37.944541999976963 ], [ -87.534421999788691, 37.945688999763043 ], [ -87.534415999940904, 37.93711299993582 ], [ -87.534839000438524, 37.936088000214966 ], [ -87.540615999555357, 37.938140000276697 ], [ -87.546087000147082, 37.940728000160192 ], [ -87.548243999773007, 37.940844000178174 ], [ -87.548498000216227, 37.92388000022472 ], [ -87.556045000243031, 37.928167999771844 ], [ -87.560895999795335, 37.932113000290407 ], [ -87.564664000322551, 37.93583400019908 ], [ -87.567022999614835, 37.93873800000766 ], [ -87.569083999879624, 37.941560000120411 ], [ -87.572792000132409, 37.94847699994795 ], [ -87.573567000084196, 37.951721999724164 ], [ -87.577511000338546, 37.951661000322481 ], [ -87.575141000277256, 37.95548899979314 ], [ -87.574233000256058, 37.961146000339731 ], [ -87.574403999960296, 37.963576999797297 ], [ -87.575045999842715, 37.965909000174229 ], [ -87.576887999824379, 37.969133999939714 ], [ -87.579579000276013, 37.97149900028522 ], [ -87.584922999747803, 37.974531000221546 ], [ -87.587408000335117, 37.975276000078395 ], [ -87.593160000235912, 37.975270000171534 ], [ -87.596256999670089, 37.974635000056843 ], [ -87.600101000365299, 37.972506999799592 ], [ -87.601390999977923, 37.971306000304295 ], [ -87.603402999838906, 37.966813999790332 ], [ -87.603464999763176, 37.959897999846355 ], [ -87.603904999979221, 37.95698699967884 ], [ -87.604906999711744, 37.954518000249337 ], [ -87.604941999871841, 37.952584000184068 ], [ -87.605813000083131, 37.949610999963504 ], [ -87.607217000396872, 37.947668999825211 ], [ -87.610271000173356, 37.944801999924032 ], [ -87.622349000085308, 37.936301999775829 ], [ -87.617403999923368, 37.938269999646351 ], [ -87.61777100034449, 37.936047000098881 ], [ -87.619322000073026, 37.933180999958587 ], [ -87.620867999778682, 37.931424999948426 ], [ -87.624596999947826, 37.930278000026441 ], [ -87.626411000340411, 37.927928000095037 ], [ -87.627269000132898, 37.924837999917273 ], [ -87.627316999813473, 37.920401999706172 ], [ -87.625018999722229, 37.91490300015041 ], [ -87.623442000054425, 37.912875000177799 ], [ -87.621786999670519, 37.91139700030584 ], [ -87.62194800022732, 37.909528000106498 ], [ -87.620365999638338, 37.907364999777208 ], [ -87.614329000230484, 37.902968000340437 ], [ -87.602350999877643, 37.89620200022302 ], [ -87.592942999602613, 37.889837000354483 ], [ -87.591992999748626, 37.888725000275535 ], [ -87.587141000371432, 37.884858000101019 ], [ -87.584989999694955, 37.881178999938548 ], [ -87.583736999892253, 37.878080000202672 ], [ -87.583925000213242, 37.872484999730951 ], [ -87.586303999597021, 37.872492999923232 ], [ -87.586392000358885, 37.870542000170602 ], [ -87.588035999973826, 37.868983999749979 ], [ -87.588085000377632, 37.867480000094645 ], [ -87.589201999737881, 37.863744999828015 ], [ -87.590255000422346, 37.863453000129624 ], [ -87.591114999864658, 37.862134000353947 ], [ -87.591457000171431, 37.860369000268285 ], [ -87.590267000117919, 37.858589999976395 ], [ -87.594741000101649, 37.853389000004846 ], [ -87.597840999908897, 37.847651999758355 ], [ -87.60078000005764, 37.845481000195178 ], [ -87.606552999874836, 37.838696000185799 ], [ -87.609886000208888, 37.836331000277305 ], [ -87.612446000240951, 37.833608000039554 ], [ -87.615345000206716, 37.831882000192259 ], [ -87.620989000152491, 37.83014299990144 ], [ -87.627274999980685, 37.828671000261508 ], [ -87.638115999983455, 37.826828999816001 ], [ -87.645878999920328, 37.826139999713554 ], [ -87.653098999708988, 37.826038000106358 ], [ -87.6573740003994, 37.82643999982794 ], [ -87.67034400043903, 37.827961999830904 ], [ -87.672428000270045, 37.828889000320544 ], [ -87.673763000088499, 37.82962299971603 ], [ -87.677719999863314, 37.834156999808883 ], [ -87.679411000232221, 37.836525000183009 ], [ -87.679685999693532, 37.838177000292752 ], [ -87.680597000087758, 37.840025000089142 ], [ -87.680998999770679, 37.844550000144693 ], [ -87.682097999587569, 37.846783000250213 ], [ -87.681382000085307, 37.851200999654601 ], [ -87.681684000209103, 37.856273000086908 ], [ -87.680814999647637, 37.857970000272161 ], [ -87.677792999658237, 37.861179999940113 ], [ -87.676328999968348, 37.864640000315219 ], [ -87.674678999607295, 37.86669499973474 ], [ -87.674420000039518, 37.867693999974357 ], [ -87.669876999560486, 37.874840999660272 ], [ -87.669291999579485, 37.875329999672481 ], [ -87.666714000004063, 37.880037999903934 ], [ -87.664032999598177, 37.887477000133963 ], [ -87.66464000021881, 37.891048000308075 ], [ -87.665373000337823, 37.893351000288909 ], [ -87.666840000400768, 37.895762999802791 ], [ -87.669326999739582, 37.89815899991018 ], [ -87.673927999944937, 37.901159000182176 ], [ -87.679956000030259, 37.903220000198104 ], [ -87.682443000267384, 37.903616000053603 ], [ -87.684414000120483, 37.903665000173923 ], [ -87.688177999551442, 37.902697999839148 ], [ -87.69590799987634, 37.898858000316814 ], [ -87.700786000091128, 37.897419999784091 ] ] ] } },
{ "type": "Feature", "properties": { "AREALAND": 1122598940, "AREAWATER": 18797245, "BASENAME": "50", "CENTLAT": "+38.0814682", "CENTLON": "-087.2977647", "FUNCSTAT": "N", "GEOID": "18050", "HU100": null, "INTPTLAT": "+38.0757354", "INTPTLON": "-087.2858407", "LDTYP": "O", "LSADC": "LU", "LSY": "2026", "MTFCC": "G5210", "NAME": "State Senate District 50", "OBJECTID": 571, "OID": "2129042393386273", "POP100": null, "SLDU": "050", "STATE": "18" }, "geometry": { "type": "GeometryCollection", "geometries": [ { "type": "Polygon", "coordinates": [ [ [ -87.548482000322707, 37.92403900007367 ], [ -87.548243999773007, 37.940844000178174 ], [ -87.546087000147082, 37.940728000160192 ], [ -87.540615999555357, 37.938140000276697 ], [ -87.534839000438524, 37.936088000214966 ], [ -87.534415999940904, 37.93711299993582 ], [ -87.534421999788691, 37.945688999763043 ], [ -87.532650999952139, 37.944541999976963 ], [ -87.529869999987142, 37.944468000107165 ], [ -87.529752999811265, 37.955303999918641 ], [ -87.527022999899884, 37.955260000190009 ], [ -87.526929000188559, 37.957643999668491 ], [ -87.52537199971394, 37.959045000302886 ], [ -87.527376999902231, 37.959064999924863 ], [ -87.527377999727122, 37.95991599979309 ], [ -87.526273000062432, 37.960909000171434 ], [ -87.524686000348893, 37.961058000064703 ], [ -87.524515999571264, 37.966245000222386 ], [ -87.53249299976838, 37.966332999947205 ], [ -87.532399000057055, 37.969945000296043 ], [ -87.52441000016438, 37.969877000161418 ], [ -87.524400999943552, 37.972729000134251 ], [ -87.524739999877269, 37.973504000132124 ], [ -87.529373999694585, 37.973544999882172 ], [ -87.529234999777401, 37.988742999707966 ], [ -87.52685300002058, 37.990719999717193 ], [ -87.526386999865252, 37.99165400026655 ], [ -87.529157999784516, 37.991692999795099 ], [ -87.529100000058207, 37.997183000065291 ], [ -87.529720000199305, 37.998057999758309 ], [ -87.527432000153809, 37.997947000113264 ], [ -87.52713500005288, 38.000234999704496 ], [ -87.527479999834398, 38.000766999910141 ], [ -87.530418999983127, 38.004058999951326 ], [ -87.533584000087686, 38.005776000086357 ], [ -87.535021999838307, 38.006102000110751 ], [ -87.536369000250644, 38.005916000217972 ], [ -87.538051000398738, 38.004308000264587 ], [ -87.540141000077526, 38.00395200021363 ], [ -87.541090999931498, 38.004480999822349 ], [ -87.542131000197202, 38.005958999865939 ], [ -87.545637999710195, 38.006634999659816 ], [ -87.548164000305391, 38.009048000172754 ], [ -87.55096600018679, 38.009666000067057 ], [ -87.549841000430618, 38.010972000311064 ], [ -87.54940500041252, 38.012491999725697 ], [ -87.550059999815389, 38.013941999737241 ], [ -87.546863999748709, 38.01572499997112 ], [ -87.546466000263777, 38.027407000165489 ], [ -87.546908999954539, 38.029637000044509 ], [ -87.542065000074956, 38.036558999785939 ], [ -87.541613000163338, 38.039031999947312 ], [ -87.542405999658499, 38.040093999966494 ], [ -87.541199999711452, 38.04090899985961 ], [ -87.554728999792829, 38.07942799982267 ], [ -87.47249900004374, 38.078162000349188 ], [ -87.473217000094138, 38.042323000231292 ], [ -87.472982999742399, 38.034944000186812 ], [ -87.44986700018417, 38.035170000218578 ], [ -87.450027000017741, 38.030650999933691 ], [ -87.449411000074576, 38.003845000319799 ], [ -87.450283000110787, 37.983674999979087 ], [ -87.450011000124206, 37.97663800023318 ], [ -87.450707000433312, 37.947762999878947 ], [ -87.45121899972105, 37.940808000143313 ], [ -87.462089000036173, 37.935474999722885 ], [ -87.469328000091394, 37.930663999711051 ], [ -87.469294999581109, 37.930076999821424 ], [ -87.470578000419366, 37.929731000229502 ], [ -87.476348999688412, 37.926529000241686 ], [ -87.480766999595659, 37.923580999702388 ], [ -87.487501999860726, 37.91808199972013 ], [ -87.497630999660899, 37.910698999964964 ], [ -87.503467000125596, 37.907893000083391 ], [ -87.506364000441565, 37.907035000319716 ], [ -87.506537999620505, 37.906676999664114 ], [ -87.509720000341829, 37.906027999871284 ], [ -87.511018000350361, 37.906191999818802 ], [ -87.517903000403265, 37.911082000270284 ], [ -87.521999000095235, 37.913307999864912 ], [ -87.53176700022037, 37.916303000028805 ], [ -87.548482000322707, 37.92403900007367 ] ] ] }, { "type": "LineString", "coordinates": [ [ -87.467284000443371, 38.165403000114097 ], [ -87.467286000093196, 38.16526199984358 ] ] }, { "type": "LineString", "coordinates": [ [ -87.467286000093196, 38.16526199984358 ], [ -87.467293999590794, 38.164840000324844 ] ] }, { "type": "LineString", "coordinates": [ [ -87.467293999590794, 38.164840000324844 ], [ -87.467296999963835, 38.164699999777532 ] ] }, { "type": "LineString", "coordinates": [ [ -87.467296999963835, 38.164699999777532 ], [ -87.467298999613661, 38.164578000191227 ] ] }, { "type": "LineString", "coordinates": [ [ -87.467298999613661, 38.164578000191227 ], [ -87.467306000184678, 38.164214999838322 ] ] }, { "type": "LineString", "coordinates": [ [ -87.467306000184678, 38.164214999838322 ], [ -87.467308999659409, 38.164094000260782 ] ] }, { "type": "LineString", "coordinates": [ [ -87.467308999659409, 38.164094000260782 ], [ -87.467485000284825, 38.155669999810826 ] ] }, { "type": "LineString", "coordinates": [ [ -87.467485000284825, 38.155669999810826 ], [ -87.46748600010973, 38.155611999890191 ] ] }, { "type": "LineString", "coordinates": [ [ -87.46748600010973, 38.155611999890191 ], [ -87.467505000376292, 38.154721999878298 ] ] }, { "type": "LineString", "coordinates": [ [ -87.467505000376292, 38.154721999878298 ], [ -87.467511000224079, 38.154417000113583 ] ] }, { "type": "LineString", "coordinates": [ [ -87.467511000224079, 38.154417000113583 ], [ -87.467587000392058, 38.150778999691603 ] ] }, { "type": "LineString", "coordinates": [ [ -87.467587000392058, 38.150778999691603 ], [ -87.467737000179909, 38.143602999894284 ] ] }, { "type": "LineString", "coordinates": [ [ -87.467737000179909, 38.143602999894284 ], [ -87.467739999654626, 38.14347500007441 ] ] }, { "type": "LineString", "coordinates": [ [ -87.467739999654626, 38.14347500007441 ], [ -87.46774100037787, 38.14340400012167 ] ] }, { "type": "LineString", "coordinates": [ [ -87.46774100037787, 38.14340400012167 ], [ -87.467888999617543, 38.136336000317762 ] ] }, { "type": "LineString", "coordinates": [ [ -87.467888999617543, 38.136336000317762 ], [ -87.467953999914869, 38.133242999918622 ] ] }, { "type": "LineString", "coordinates": [ [ -87.467953999914869, 38.133242999918622 ], [ -87.467953999914869, 38.133213999880354 ] ] }, { "type": "LineString", "coordinates": [ [ -87.467953999914869, 38.133213999880354 ], [ -87.467955999564694, 38.133126999696358 ] ] }, { "type": "LineString", "coordinates": [ [ -87.467955999564694, 38.133126999696358 ], [ -87.467957000287925, 38.13309900015112 ] ] }, { "type": "LineString", "coordinates": [ [ -87.467957000287925, 38.13309900015112 ], [ -87.46798800025006, 38.131608000019618 ] ] }, { "type": "LineString", "coordinates": [ [ -87.46798800025006, 38.131608000019618 ], [ -87.468081999961385, 38.127133999985432 ] ] }, { "type": "LineString", "coordinates": [ [ -87.468081999961385, 38.127133999985432 ], [ -87.468113999748439, 38.125644000194278 ] ] }, { "type": "LineString", "coordinates": [ [ -87.468113999748439, 38.125644000194278 ], [ -87.468117000121495, 38.125518999775345 ] ] }, { "type": "LineString", "coordinates": [ [ -87.468117000121495, 38.125518999775345 ], [ -87.467990999724805, 38.12504300024586 ] ] }, { "type": "LineString", "coordinates": [ [ -87.467990999724805, 38.12504300024586 ], [ -87.467912999907, 38.12172899982405 ] ] }, { "type": "LineString", "coordinates": [ [ -87.467912999907, 38.12172899982405 ], [ -87.467922999952734, 38.121718999940612 ] ] }, { "type": "LineString", "coordinates": [ [ -87.467922999952734, 38.121718999940612 ], [ -87.467933999823387, 38.121711000032874 ] ] }, { "type": "LineString", "coordinates": [ [ -87.467933999823387, 38.121711000032874 ], [ -87.467948000067096, 38.121702000135642 ] ] }, { "type": "LineString", "coordinates": [ [ -87.467948000067096, 38.121702000135642 ], [ -87.468866999958948, 38.121716999963759 ] ] }, { "type": "LineString", "coordinates": [ [ -87.468866999958948, 38.121716999963759 ], [ -87.469432999673373, 38.121717999952217 ] ] }, { "type": "LineString", "coordinates": [ [ -87.469432999673373, 38.121717999952217 ], [ -87.469952000430453, 38.121713999998398 ] ] }, { "type": "LineString", "coordinates": [ [ -87.469952000430453, 38.121713999998398 ], [ -87.470698999894864, 38.121720999917407 ] ] }, { "type": "LineString", "coordinates": [ [ -87.470698999894864, 38.121720999917407 ], [ -87.47122100012669, 38.121722999894153 ] ] }, { "type": "LineString", "coordinates": [ [ -87.47122100012669, 38.121722999894153 ], [ -87.472093000162872, 38.121740999682423 ] ] }, { "type": "LineString", "coordinates": [ [ -87.472093000162872, 38.121740999682423 ], [ -87.472094999812683, 38.120914999882913 ] ] }, { "type": "LineString", "coordinates": [ [ -87.472094999812683, 38.120914999882913 ], [ -87.472112000429433, 38.119600000106239 ] ] }, { "type": "LineString", "coordinates": [ [ -87.472112000429433, 38.119600000106239 ], [ -87.472112000429433, 38.11957100030164 ] ] }, { "type": "LineString", "coordinates": [ [ -87.472112000429433, 38.11957100030164 ], [ -87.472107000406581, 38.119154000156264 ] ] }, { "type": "LineString", "coordinates": [ [ -87.472107000406581, 38.119154000156264 ], [ -87.472139000193636, 38.117510000193221 ] ] }, { "type": "LineString", "coordinates": [ [ -87.472139000193636, 38.117510000193221 ], [ -87.472136999645471, 38.117243000129719 ] ] }, { "type": "LineString", "coordinates": [ [ -87.472136999645471, 38.117243000129719 ], [ -87.472145999866314, 38.11678299984294 ] ] }, { "type": "LineString", "coordinates": [ [ -87.472145999866314, 38.11678299984294 ], [ -87.472153000437331, 38.114842000321033 ] ] }, { "type": "LineString", "coordinates": [ [ -87.472153000437331, 38.114842000321033 ], [ -87.472153000437331, 38.114732000341178 ] ] }, { "type": "LineString", "coordinates": [ [ -87.472153000437331, 38.114732000341178 ], [ -87.472154000262222, 38.114693999962704 ] ] }, { "type": "LineString", "coordinates": [ [ -87.472154000262222, 38.114693999962704 ], [ -87.472149000239369, 38.114270000313049 ] ] }, { "type": "LineString", "coordinates": [ [ -87.472149000239369, 38.114270000313049 ], [ -87.472177999653368, 38.111990000277679 ] ] }, { "type": "LineString", "coordinates": [ [ -87.472177999653368, 38.111990000277679 ], [ -87.47218199985133, 38.110249999722797 ] ] }, { "type": "LineString", "coordinates": [ [ -87.47218199985133, 38.110249999722797 ], [ -87.472194000445199, 38.109314999795679 ] ] }, { "type": "LineString", "coordinates": [ [ -87.472194000445199, 38.109314999795679 ], [ -87.472195000270119, 38.109274999815369 ] ] }, { "type": "LineString", "coordinates": [ [ -87.472195000270119, 38.109274999815369 ], [ -87.47219799974485, 38.109123000255721 ] ] }, { "type": "LineString", "coordinates": [ [ -87.47219799974485, 38.109123000255721 ], [ -87.472194000445199, 38.108714999911108 ] ] }, { "type": "LineString", "coordinates": [ [ -87.472194000445199, 38.108714999911108 ], [ -87.472201000117906, 38.107868000301359 ] ] }, { "type": "LineString", "coordinates": [ [ -87.472201000117906, 38.107868000301359 ], [ -87.472211000163639, 38.107453000143295 ] ] }, { "type": "LineString", "coordinates": [ [ -87.472211000163639, 38.107453000143295 ], [ -87.472212999813465, 38.107359999958256 ] ] }, { "type": "LineString", "coordinates": [ [ -87.472212999813465, 38.107359999958256 ], [ -87.472220000384482, 38.10707300000886 ] ] }, { "type": "LineString", "coordinates": [ [ -87.472220000384482, 38.10707300000886 ], [ -87.472237000102922, 38.105490999894627 ] ] }, { "type": "LineString", "coordinates": [ [ -87.472237000102922, 38.105490999894627 ], [ -87.472237999927827, 38.105422999677664 ] ] }, { "type": "LineString", "coordinates": [ [ -87.472237999927827, 38.105422999677664 ], [ -87.4722439997756, 38.104891999922934 ] ] }, { "type": "LineString", "coordinates": [ [ -87.4722439997756, 38.104891999922934 ], [ -87.472273999912829, 38.103212999877307 ] ] }, { "type": "LineString", "coordinates": [ [ -87.472273999912829, 38.103212999877307 ], [ -87.472279999760616, 38.102552999883315 ] ] }, { "type": "LineString", "coordinates": [ [ -87.472279999760616, 38.102552999883315 ], [ -87.472294000004325, 38.101942999835607 ] ] }, { "type": "LineString", "coordinates": [ [ -87.472294000004325, 38.101942999835607 ], [ -87.472316999570538, 38.100894999903808 ] ] }, { "type": "LineString", "coordinates": [ [ -87.472316999570538, 38.100894999903808 ], [ -87.47233800038525, 38.099944000077443 ] ] }, { "type": "LineString", "coordinates": [ [ -87.47233800038525, 38.099944000077443 ], [ -87.472389000438881, 38.098361999708082 ] ] }, { "type": "LineString", "coordinates": [ [ -87.472389000438881, 38.098361999708082 ], [ -87.472413999654918, 38.097927999675939 ] ] }, { "type": "LineString", "coordinates": [ [ -87.472413999654918, 38.097927999675939 ], [ -87.472415000378135, 38.09791899967572 ] ] }, { "type": "LineString", "coordinates": [ [ -87.472415000378135, 38.09791899967572 ], [ -87.472420000401016, 38.097838999938944 ] ] }, { "type": "LineString", "coordinates": [ [ -87.472420000401016, 38.097838999938944 ], [ -87.472423999700666, 38.097599000203097 ] ] }, { "type": "LineString", "coordinates": [ [ -87.472423999700666, 38.097599000203097 ], [ -87.472447999990109, 38.096932999847667 ] ] }, { "type": "LineString", "coordinates": [ [ -87.472447999990109, 38.096932999847667 ], [ -87.472447999990109, 38.096760999822706 ] ] }, { "type": "LineString", "coordinates": [ [ -87.472447999990109, 38.096760999822706 ], [ -87.472473999929377, 38.095964999926636 ] ] }, { "type": "LineString", "coordinates": [ [ -87.472473999929377, 38.095964999926636 ], [ -87.472470999556322, 38.095916999801382 ] ] }, { "type": "LineString", "coordinates": [ [ -87.472470999556322, 38.095916999801382 ], [ -87.472473999929377, 38.095809999924178 ] ] }, { "type": "LineString", "coordinates": [ [ -87.472473999929377, 38.095809999924178 ], [ -87.472474999754283, 38.09579499972407 ] ] }, { "type": "LineString", "coordinates": [ [ -87.472474999754283, 38.09579499972407 ], [ -87.472494000020859, 38.095178999827901 ] ] }, { "type": "LineString", "coordinates": [ [ -87.472494000020859, 38.095178999827901 ], [ -87.472533000378931, 38.093572000080464 ] ] }, { "type": "LineString", "coordinates": [ [ -87.472533000378931, 38.093572000080464 ], [ -87.472549000272437, 38.093243999757398 ] ] }, { "type": "LineString", "coordinates": [ [ -87.472549000272437, 38.093243999757398 ], [ -87.472560000143105, 38.092651999655949 ] ] }, { "type": "LineString", "coordinates": [ [ -87.472560000143105, 38.092651999655949 ], [ -87.472560000143105, 38.092628999956538 ] ] }, { "type": "LineString", "coordinates": [ [ -87.472560000143105, 38.092628999956538 ], [ -87.472570000188853, 38.09229199965737 ] ] }, { "type": "LineString", "coordinates": [ [ -87.472570000188853, 38.09229199965737 ], [ -87.472579000409681, 38.092016000013054 ] ] }, { "type": "LineString", "coordinates": [ [ -87.472579000409681, 38.092016000013054 ], [ -87.472427999898628, 38.088998999997429 ] ] }, { "type": "LineString", "coordinates": [ [ -87.472427999898628, 38.088998999997429 ], [ -87.472444999617068, 38.088283000087515 ] ] }, { "type": "LineString", "coordinates": [ [ -87.472444999617068, 38.088283000087515 ], [ -87.472449999639935, 38.088125000124656 ] ] }, { "type": "LineString", "coordinates": [ [ -87.472449999639935, 38.088125000124656 ], [ -87.472462000233818, 38.08794699999909 ] ] }, { "type": "LineString", "coordinates": [ [ -87.472462000233818, 38.08794699999909 ], [ -87.472461000408899, 38.087922999782208 ] ] }, { "type": "LineString", "coordinates": [ [ -87.472461000408899, 38.087922999782208 ], [ -87.472430000446764, 38.087019000014628 ] ] }, { "type": "LineString", "coordinates": [ [ -87.472430000446764, 38.087019000014628 ], [ -87.472431000271669, 38.086917000041367 ] ] }, { "type": "LineString", "coordinates": [ [ -87.472431000271669, 38.086917000041367 ], [ -87.4724339997464, 38.086784000313074 ] ] }, { "type": "LineString", "coordinates": [ [ -87.4724339997464, 38.086784000313074 ], [ -87.472434999571306, 38.086712999668002 ] ] }, { "type": "LineString", "coordinates": [ [ -87.472434999571306, 38.086712999668002 ], [ -87.472437999944361, 38.086518000130603 ] ] }, { "type": "LineString", "coordinates": [ [ -87.472437999944361, 38.086518000130603 ], [ -87.47245300001299, 38.085535999740586 ] ] }, { "type": "LineString", "coordinates": [ [ -87.47245300001299, 38.085535999740586 ], [ -87.472458000035843, 38.085230000257226 ] ] }, { "type": "LineString", "coordinates": [ [ -87.472458000035843, 38.085230000257226 ], [ -87.472509999914394, 38.082179999676633 ] ] }, { "type": "LineString", "coordinates": [ [ -87.472509999914394, 38.082179999676633 ], [ -87.472509999914394, 38.081962999667773 ] ] }, { "type": "LineString", "coordinates": [ [ -87.472509999914394, 38.081962999667773 ], [ -87.472509000089474, 38.081730000342453 ] ] }, { "type": "LineString", "coordinates": [ [ -87.472509000089474, 38.081730000342453 ], [ -87.472489999822898, 38.07879800031084 ] ] }, { "type": "LineString", "coordinates": [ [ -87.472489999822898, 38.07879800031084 ], [ -87.472494000020859, 38.078538999880003 ] ] }, { "type": "LineString", "coordinates": [ [ -87.472494000020859, 38.078538999880003 ], [ -87.47249800021882, 38.078277000318316 ] ] }, { "type": "LineString", "coordinates": [ [ -87.47249800021882, 38.078277000318316 ], [ -87.47249900004374, 38.078162000349188 ] ] } ] } }
]
}
