{
"type": "FeatureCollection",
"name": "state_house",
"crs": { "type": "name", "properties": { "name": "urn:ogc:def:crs:OGC:1.3:CRS84" } },
"features": [
{ "type": "Feature", "properties": { "AREALAND": 2036890096, "AREAWATER": 45302190, "BASENAME": "64", "CENTLAT": "+38.4095368", "CENTLON": "-087.5573497", "FUNCSTAT": "N", "GEOID": "18064", "HU100": null, "INTPTLAT": "+38.4099594", "INTPTLON": "-087.5546314", "LDTYP": "O", "LSADC": "LL", "LSY": "2026", "MTFCC": "G5220", "NAME": "State House District 64", "OBJECTID": 2661, "OID": "2139042393386354", "POP100": null, "SLDL": "064", "STATE": "18" }, "geometry": { "type": "Polygon", "coordinates": [ [ [ -87.68837400026834, 38.168419000210065 ], [ -87.654391999694639, 38.168224999924711 ], [ -87.615132999596298, 38.167509999864826 ], [ -87.577996999687016, 38.167425999820182 ], [ -87.577958000227284, 38.166929000165126 ], [ -87.536185000127631, 38.166911000222072 ], [ -87.527064999732673, 38.166353999864818 ], [ -87.499599000039254, 38.165739999946247 ], [ -87.467284000443371, 38.165403000114097 ], [ -87.468117000121495, 38.125518999775345 ], [ -87.467912999907, 38.12172899982405 ], [ -87.472093000162872, 38.121740999682423 ], [ -87.472579000409681, 38.092016000013054 ], [ -87.47249900004374, 38.078162000349188 ], [ -87.598031999704602, 38.080050999895107 ], [ -87.59775399987025, 38.094379999994068 ], [ -87.625063999928074, 38.094811000231203 ], [ -87.634642999907328, 38.094811000231203 ], [ -87.634626000188888, 38.080407999824594 ], [ -87.697367000441659, 38.08030199972044 ], [ -87.696774999889655, 38.124843000087751 ], [ -87.688918000241458, 38.124710000131522 ], [ -87.68837400026834, 38.168419000210065 ] ] ] } },
{ "type": "Feature", "properties": { "AREALAND": 134196279, "AREAWATER": 1686999, "BASENAME": "78", "CENTLAT": "+38.0180389", "CENTLON": "-087.5021313", "FUNCSTAT": "N", "GEOID": "18078", "HU100": null, "INTPTLAT": "+38.0183191", "INTPTLON": "-087.5055509", "LDTYP": "O", "LSADC": "LL", "LSY": "2026", "MTFCC": "G5220", "NAME": "State House District 78", "OBJECTID": 2670, "OID": "2139042393386363", "POP100": null, "SLDL": "078", "STATE": "18" }, "geometry": { "type": "GeometryCollection", "geometries": [ { "type": "Polygon", "coordinates": [ [ [ -87.451616000279415, 37.947767999667406 ], [ -87.468015999839167, 37.947703000265513 ], [ -87.471200000210288, 37.947357000050992 ], [ -87.471746999658137, 37.947657999991932 ], [ -87.470954999987896, 37.948462000017862 ], [ -87.471391999830914, 37.949173999934033 ], [ -87.471396000028861, 37.950379000272335 ], [ -87.472422000050855, 37.950813999818756 ], [ -87.471996999903396, 37.95165399971436 ], [ -87.471442000059625, 37.951646999813931 ], [ -87.471379000310435, 37.954822000327596 ], [ -87.492811000070745, 37.954951999935119 ], [ -87.492676000351523, 37.967964000162837 ], [ -87.486897999613163, 37.967908999886994 ], [ -87.486691999748828, 37.969471999992066 ], [ -87.483577999697886, 37.969183000309819 ], [ -87.483017000006328, 37.969423999760977 ], [ -87.474293000344815, 37.969354999904922 ], [ -87.474053000145304, 37.97667299985676 ], [ -87.492594000335771, 37.9767699998593 ], [ -87.492673999803387, 37.984761000158869 ], [ -87.495051000435666, 37.986644000123903 ], [ -87.501784000152597, 37.988939999993811 ], [ -87.501781999604461, 37.989333999686529 ], [ -87.520118999580419, 37.985772999814387 ], [ -87.520094000364381, 37.98796900031288 ], [ -87.529238999975362, 37.988091000340653 ], [ -87.529234999777401, 37.988742999707966 ], [ -87.531943999772395, 37.986501999883117 ], [ -87.535394000282309, 37.982555000144096 ], [ -87.536838999705608, 37.9818319998829 ], [ -87.538499999937301, 37.981630000022442 ], [ -87.538336999730703, 37.991836999889799 ], [ -87.547411000094883, 37.99207400003484 ], [ -87.54740500024711, 37.993878000091541 ], [ -87.556293999765046, 37.993852999852002 ], [ -87.556620000178299, 37.992237999878178 ], [ -87.557120999595398, 37.992072000051778 ], [ -87.560895999795335, 37.9921269999207 ], [ -87.560976999986181, 37.99244000026907 ], [ -87.560993999704607, 37.991196000094391 ], [ -87.565587000412364, 37.991202000115159 ], [ -87.565656000009326, 37.988381000312152 ], [ -87.570934000257211, 37.988465999927861 ], [ -87.570879000005633, 37.990304000047161 ], [ -87.573620999612572, 37.990368000313346 ], [ -87.573604999719038, 37.991276999979007 ], [ -87.574747000091975, 37.991303000036631 ], [ -87.574250999799403, 38.009777999772062 ], [ -87.570885999678325, 38.009817999675775 ], [ -87.567524999755179, 38.010472000031143 ], [ -87.565132000127704, 38.01046999984198 ], [ -87.56505699978463, 38.013980000106436 ], [ -87.560889000122629, 38.013912999777446 ], [ -87.557252000014969, 38.011947000107355 ], [ -87.554983000236035, 38.007919000094098 ], [ -87.552740000396383, 38.009193000279041 ], [ -87.55096600018679, 38.009666000067057 ], [ -87.549841000430618, 38.010972000311064 ], [ -87.54940500041252, 38.012491999725697 ], [ -87.550059999815389, 38.013941999737241 ], [ -87.546863999748709, 38.01572499997112 ], [ -87.546466000263777, 38.027407000165489 ], [ -87.546908999954539, 38.029637000044509 ], [ -87.542065000074956, 38.036558999785939 ], [ -87.54165499999614, 38.039224000327813 ], [ -87.542405999658499, 38.040093999966494 ], [ -87.544415999869656, 38.038725999781775 ], [ -87.547073999811005, 38.037694999646263 ], [ -87.555456999888975, 38.037555999802315 ], [ -87.558565000092116, 38.034525000233479 ], [ -87.560053000071463, 38.033694000070753 ], [ -87.562223999941097, 38.033747000297026 ], [ -87.564136000242954, 38.034810000302031 ], [ -87.564209000037891, 38.035717999729279 ], [ -87.568560999822893, 38.036170999722998 ], [ -87.57047399994967, 38.03720599971389 ], [ -87.569708000218696, 38.037838000233506 ], [ -87.569015000282661, 38.037562999999274 ], [ -87.569001000038952, 38.039781999703834 ], [ -87.571826000384874, 38.039852999916739 ], [ -87.57180000044562, 38.041165000060822 ], [ -87.574012000323123, 38.041224999680061 ], [ -87.573726999917781, 38.039954999723442 ], [ -87.577354999804612, 38.039014000305912 ], [ -87.579283, 38.037105000054602 ], [ -87.582142999607726, 38.035958999943567 ], [ -87.582214999577744, 38.036462000316668 ], [ -87.582581999998851, 38.036599999668852 ], [ -87.598970999687936, 38.036816000070907 ], [ -87.598031999704602, 38.080050999895107 ], [ -87.47249900004374, 38.078162000349188 ], [ -87.473217000094138, 38.042323000231292 ], [ -87.472982999742399, 38.034944000186812 ], [ -87.44986700018417, 38.035170000218578 ], [ -87.450027000017741, 38.030650999933691 ], [ -87.449411000074576, 38.003845000319799 ], [ -87.450283000110787, 37.983674999979087 ], [ -87.450011000124206, 37.97663800023318 ], [ -87.450707000433312, 37.947762999878947 ], [ -87.451616000279415, 37.947767999667406 ] ] ] }, { "type": "LineString", "coordinates": [ [ -87.450707000433312, 37.947762999878947 ], [ -87.450812999840196, 37.944372000222565 ] ] }, { "type": "LineString", "coordinates": [ [ -87.450812999840196, 37.944372000222565 ], [ -87.450908000274751, 37.942821000224001 ] ] }, { "type": "LineString", "coordinates": [ [ -87.450908000274751, 37.942821000224001 ], [ -87.450930000016058, 37.942454000197486 ] ] }, { "type": "LineString", "coordinates": [ [ -87.450930000016058, 37.942454000197486 ], [ -87.45121899972105, 37.940808000143313 ] ] } ] } },
{ "type": "Feature", "properties": { "AREALAND": 1290573576, "AREAWATER": 31419250, "BASENAME": "76", "CENTLAT": "+38.0121250", "CENTLON": "-087.8283527", "FUNCSTAT": "N", "GEOID": "18076", "HU100": null, "INTPTLAT": "+38.0123947", "INTPTLON": "-087.8253632", "LDTYP": "O", "LSADC": "LL", "LSY": "2026", "MTFCC": "G5220", "NAME": "State House District 76", "OBJECTID": 2787, "OID": "2139042393386383", "POP100": null, "SLDL": "076", "STATE": "18" }, "geometry": { "type": "GeometryCollection", "geometries": [ { "type": "Polygon", "coordinates": [ [ [ -87.700786000091128, 37.897419999784091 ], [ -87.700467000248906, 37.898890000254632 ], [ -87.699955000062829, 37.926197999767894 ], [ -87.699601999885402, 37.929394999669427 ], [ -87.699149999973798, 37.96742100032187 ], [ -87.697817999630061, 38.032378999718439 ], [ -87.697367000441659, 38.08030199972044 ], [ -87.634626000188888, 38.080407999824594 ], [ -87.634642999907328, 38.094811000231203 ], [ -87.59775399987025, 38.094379999994068 ], [ -87.598970999687936, 38.036816000070907 ], [ -87.582581999998851, 38.036599999668852 ], [ -87.582214999577744, 38.036462000316668 ], [ -87.582142999607726, 38.035958999943567 ], [ -87.579283, 38.037105000054602 ], [ -87.577354999804612, 38.039014000305912 ], [ -87.573726999917781, 38.039954999723442 ], [ -87.574012000323123, 38.041224999680061 ], [ -87.57180000044562, 38.041165000060822 ], [ -87.571826000384874, 38.039852999916739 ], [ -87.569001000038952, 38.039781999703834 ], [ -87.569015000282661, 38.037562999999274 ], [ -87.569708000218696, 38.037838000233506 ], [ -87.57047399994967, 38.03720599971389 ], [ -87.568560999822893, 38.036170999722998 ], [ -87.564209000037891, 38.035717999729279 ], [ -87.564136000242954, 38.034810000302031 ], [ -87.562223999941097, 38.033747000297026 ], [ -87.560053000071463, 38.033694000070753 ], [ -87.558565000092116, 38.034525000233479 ], [ -87.555456999888975, 38.037555999802315 ], [ -87.547073999811005, 38.037694999646263 ], [ -87.544415999869656, 38.038725999781775 ], [ -87.542405999658499, 38.040093999966494 ], [ -87.541613000163338, 38.039031999947312 ], [ -87.542065000074956, 38.036558999785939 ], [ -87.546908999954539, 38.029637000044509 ], [ -87.546466000263777, 38.027407000165489 ], [ -87.546863999748709, 38.01572499997112 ], [ -87.550059999815389, 38.013941999737241 ], [ -87.549390000343891, 38.012661000238786 ], [ -87.550125000112743, 38.010502000030876 ], [ -87.55096600018679, 38.009666000067057 ], [ -87.552740000396383, 38.009193000279041 ], [ -87.554983000236035, 38.007919000094098 ], [ -87.557252000014969, 38.011947000107355 ], [ -87.560889000122629, 38.013912999777446 ], [ -87.56505699978463, 38.013980000106436 ], [ -87.565132000127704, 38.01046999984198 ], [ -87.567524999755179, 38.010472000031143 ], [ -87.570885999678325, 38.009817999675775 ], [ -87.574250999799403, 38.009777999772062 ], [ -87.574629000091178, 37.995383999967487 ], [ -87.577875000386598, 37.997860000331457 ], [ -87.578385999849459, 37.999012999923195 ], [ -87.578239000434678, 38.000425000069299 ], [ -87.578585999865993, 38.001356999773428 ], [ -87.583655999701406, 38.002978999951743 ], [ -87.585232000442602, 38.003203999995179 ], [ -87.586296999924329, 38.002922000038758 ], [ -87.588047999669371, 38.000105999817087 ], [ -87.59102399962805, 38.000168999790432 ], [ -87.591259999629628, 38.000629999836264 ], [ -87.590011000024873, 38.001356000262398 ], [ -87.591539000187197, 38.002629999814495 ], [ -87.591761999769929, 38.004388999826034 ], [ -87.592566999858974, 38.004718000165973 ], [ -87.592595000346378, 38.00566299977001 ], [ -87.59359500042909, 38.005355000046819 ], [ -87.594594999613477, 38.005706000274238 ], [ -87.594455999696308, 38.005201000053937 ], [ -87.595163999700972, 38.004887999659914 ], [ -87.59533000028064, 38.004162000226067 ], [ -87.596024999866501, 38.004722000150267 ], [ -87.597039000192893, 38.004831999986756 ], [ -87.59837200036155, 38.004452999835728 ], [ -87.598649000370969, 38.004040000029185 ], [ -87.597954999711718, 38.003700000254241 ], [ -87.598260000208541, 38.003117000079143 ], [ -87.599991999687049, 38.003304000186155 ], [ -87.600005000105824, 38.000690000091268 ], [ -87.602805000337412, 38.000753000270841 ], [ -87.605702999579961, 38.002579000136016 ], [ -87.610199000203338, 38.003180000297128 ], [ -87.610143999951745, 38.001656000200164 ], [ -87.607788000134178, 37.99846100023337 ], [ -87.609727000200238, 37.996949000274618 ], [ -87.613705999716331, 37.997035000151357 ], [ -87.613709000089386, 37.998834999648665 ], [ -87.618219000058133, 37.998921999689678 ], [ -87.618320000340475, 37.994971000055614 ], [ -87.616505999947904, 37.995796000090834 ], [ -87.615602000124682, 37.991712000084384 ], [ -87.614709000172084, 37.9905069997588 ], [ -87.613367999607519, 37.991297999672291 ], [ -87.609996999638639, 37.991089999647095 ], [ -87.609213000364321, 37.990688999755037 ], [ -87.607761000370004, 37.989041000197581 ], [ -87.604924000328509, 37.98789500030162 ], [ -87.604987000077699, 37.98343999982508 ], [ -87.605356000148632, 37.983153999893815 ], [ -87.60610900035914, 37.983261000236254 ], [ -87.606386000368573, 37.982424000070914 ], [ -87.604787000061151, 37.980926999892382 ], [ -87.609659000428167, 37.980996000200157 ], [ -87.610615999954845, 37.944538000253914 ], [ -87.622428999552952, 37.936203000072972 ], [ -87.617403999923368, 37.938269999646351 ], [ -87.61777100034449, 37.936047000098881 ], [ -87.619322000073026, 37.933180999958587 ], [ -87.620867999778682, 37.931424999948426 ], [ -87.624596999947826, 37.930278000026441 ], [ -87.626411000340411, 37.927928000095037 ], [ -87.627269000132898, 37.924837999917273 ], [ -87.627316999813473, 37.920401999706172 ], [ -87.62536799970168, 37.915516999922048 ], [ -87.62396500011117, 37.913458999897863 ], [ -87.621786999670519, 37.91139700030584 ], [ -87.62194800022732, 37.909528000106498 ], [ -87.619824000213342, 37.906846000028295 ], [ -87.613058999811059, 37.902164000325477 ], [ -87.609948999958078, 37.900326000066386 ], [ -87.606917999747822, 37.898997000012066 ], [ -87.595887999599157, 37.892001000051813 ], [ -87.592942999602613, 37.889837000354483 ], [ -87.58670799982805, 37.884261999784329 ], [ -87.584989999694955, 37.881178999938548 ], [ -87.583736999892253, 37.878080000202672 ], [ -87.583925000213242, 37.872484999730951 ], [ -87.586303999597021, 37.872492999923232 ], [ -87.586392000358885, 37.870542000170602 ], [ -87.588035999973826, 37.868983999749979 ], [ -87.588085000377632, 37.867480000094645 ], [ -87.589201999737881, 37.863744999828015 ], [ -87.590255000422346, 37.863453000129624 ], [ -87.591114999864658, 37.862134000353947 ], [ -87.591432000057068, 37.860754000035769 ], [ -87.591196999880438, 37.859658000210096 ], [ -87.590267000117919, 37.858589999976395 ], [ -87.594741000101649, 37.853389000004846 ], [ -87.597840999908897, 37.847651999758355 ], [ -87.60078000005764, 37.845481000195178 ], [ -87.606552999874836, 37.838696000185799 ], [ -87.609886000208888, 37.836331000277305 ], [ -87.612446000240951, 37.833608000039554 ], [ -87.615345000206716, 37.831882000192259 ], [ -87.620989000152491, 37.83014299990144 ], [ -87.627274999980685, 37.828671000261508 ], [ -87.640711000175628, 37.82643999982794 ], [ -87.644160999787232, 37.826189000288608 ], [ -87.653837999675758, 37.826087000039585 ], [ -87.67034400043903, 37.827961999830904 ], [ -87.673763000088499, 37.82962299971603 ], [ -87.679411000232221, 37.836525000183009 ], [ -87.679685999693532, 37.838177000292752 ], [ -87.680863000226552, 37.840952999685278 ], [ -87.680998999770679, 37.844550000144693 ], [ -87.682097999587569, 37.846783000250213 ], [ -87.681382000085307, 37.851200999654601 ], [ -87.681684000209103, 37.856273000086908 ], [ -87.680814999647637, 37.857970000272161 ], [ -87.677792999658237, 37.861179999940113 ], [ -87.676328999968348, 37.864640000315219 ], [ -87.674678999607295, 37.86669499973474 ], [ -87.674420000039518, 37.867693999974357 ], [ -87.669876999560486, 37.874840999660272 ], [ -87.669291999579485, 37.875329999672481 ], [ -87.666714000004063, 37.880037999903934 ], [ -87.664032999598177, 37.887477000133963 ], [ -87.66464000021881, 37.891048000308075 ], [ -87.665373000337823, 37.893351000288909 ], [ -87.666840000400768, 37.895762999802791 ], [ -87.669326999739582, 37.89815899991018 ], [ -87.673927999944937, 37.901159000182176 ], [ -87.679956000030259, 37.903220000198104 ], [ -87.682443000267384, 37.903616000053603 ], [ -87.684414000120483, 37.903665000173923 ], [ -87.688177999551442, 37.902697999839148 ], [ -87.69590799987634, 37.898858000316814 ], [ -87.700786000091128, 37.897419999784091 ] ] ] }, { "type": "LineString", "coordinates": [ [ -87.697367000441659, 38.08030199972044 ], [ -87.697367000441659, 38.080323000066841 ] ] }, { "type": "LineString", "coordinates": [ [ -87.697367000441659, 38.080323000066841 ], [ -87.697302000144347, 38.088844999801005 ] ] }, { "type": "LineString", "coordinates": [ [ -87.697302000144347, 38.088844999801005 ], [ -87.697278999679796, 38.090067999805306 ] ] }, { "type": "LineString", "coordinates": [ [ -87.697278999679796, 38.090067999805306 ], [ -87.697221999778392, 38.093223000294444 ] ] }, { "type": "LineString", "coordinates": [ [ -87.697221999778392, 38.093223000294444 ], [ -87.697203000410155, 38.094287000136028 ] ] }, { "type": "LineString", "coordinates": [ [ -87.697203000410155, 38.094287000136028 ], [ -87.697225000151448, 38.094314000061388 ] ] }, { "type": "LineString", "coordinates": [ [ -87.697225000151448, 38.094314000061388 ], [ -87.697241999869888, 38.094334999917926 ] ] }, { "type": "LineString", "coordinates": [ [ -87.697241999869888, 38.094334999917926 ], [ -87.697257999763409, 38.094371000263827 ] ] }, { "type": "LineString", "coordinates": [ [ -87.697257999763409, 38.094371000263827 ], [ -87.697263999611181, 38.094408999902768 ] ] }, { "type": "LineString", "coordinates": [ [ -87.697263999611181, 38.094408999902768 ], [ -87.69726000031153, 38.094976000243044 ] ] }, { "type": "LineString", "coordinates": [ [ -87.69726000031153, 38.094976000243044 ], [ -87.697263999611181, 38.095092999922848 ] ] }, { "type": "LineString", "coordinates": [ [ -87.697263999611181, 38.095092999922848 ], [ -87.697247999717661, 38.096291000090396 ] ] }, { "type": "LineString", "coordinates": [ [ -87.697247999717661, 38.096291000090396 ], [ -87.697247999717661, 38.096502999733154 ] ] }, { "type": "LineString", "coordinates": [ [ -87.697247999717661, 38.096502999733154 ], [ -87.697225999976368, 38.096611000341831 ] ] }, { "type": "LineString", "coordinates": [ [ -87.697225999976368, 38.096611000341831 ], [ -87.697133000089948, 38.101847000337749 ] ] }, { "type": "LineString", "coordinates": [ [ -87.697133000089948, 38.101847000337749 ], [ -87.697128000067067, 38.101922000044567 ] ] }, { "type": "LineString", "coordinates": [ [ -87.697128000067067, 38.101922000044567 ], [ -87.697132000265029, 38.101966000138411 ] ] }, { "type": "LineString", "coordinates": [ [ -87.697132000265029, 38.101966000138411 ], [ -87.697131000440123, 38.10245800002528 ] ] }, { "type": "LineString", "coordinates": [ [ -87.697131000440123, 38.10245800002528 ], [ -87.697123000044215, 38.102904999679524 ] ] }, { "type": "LineString", "coordinates": [ [ -87.697123000044215, 38.102904999679524 ], [ -87.697113999823372, 38.10339700031232 ] ] }, { "type": "LineString", "coordinates": [ [ -87.697113999823372, 38.10339700031232 ], [ -87.697114999648278, 38.103683999858355 ] ] }, { "type": "LineString", "coordinates": [ [ -87.697114999648278, 38.103683999858355 ], [ -87.69710499960253, 38.104435000278833 ] ] }, { "type": "LineString", "coordinates": [ [ -87.69710499960253, 38.104435000278833 ], [ -87.69710499960253, 38.104457000279254 ] ] }, { "type": "LineString", "coordinates": [ [ -87.69710499960253, 38.104457000279254 ], [ -87.697103999777624, 38.104485999723451 ] ] }, { "type": "LineString", "coordinates": [ [ -87.697103999777624, 38.104485999723451 ], [ -87.697102000127799, 38.104590999881644 ] ] }, { "type": "LineString", "coordinates": [ [ -87.697102000127799, 38.104590999881644 ], [ -87.697094999556782, 38.104906999669467 ] ] }, { "type": "LineString", "coordinates": [ [ -87.697094999556782, 38.104906999669467 ], [ -87.697083999686129, 38.105154999744691 ] ] }, { "type": "LineString", "coordinates": [ [ -87.697083999686129, 38.105154999744691 ], [ -87.697080000386492, 38.105403999896787 ] ] }, { "type": "LineString", "coordinates": [ [ -87.697080000386492, 38.105403999896787 ], [ -87.69707100016565, 38.105942000189117 ] ] }, { "type": "LineString", "coordinates": [ [ -87.69707100016565, 38.105942000189117 ], [ -87.697066000142797, 38.106271000268244 ] ] }, { "type": "LineString", "coordinates": [ [ -87.697066000142797, 38.106271000268244 ], [ -87.697044000401476, 38.106518999954403 ] ] }, { "type": "LineString", "coordinates": [ [ -87.697044000401476, 38.106518999954403 ], [ -87.697039000378609, 38.106570000064799 ] ] }, { "type": "LineString", "coordinates": [ [ -87.697039000378609, 38.106570000064799 ], [ -87.697086000234279, 38.108344000110719 ] ] }, { "type": "LineString", "coordinates": [ [ -87.697086000234279, 38.108344000110719 ], [ -87.697092999906971, 38.108574999794328 ] ] }, { "type": "LineString", "coordinates": [ [ -87.697092999906971, 38.108574999794328 ], [ -87.697078999663276, 38.108607999689518 ] ] }, { "type": "LineString", "coordinates": [ [ -87.697078999663276, 38.108607999689518 ], [ -87.697070000340744, 38.108649000202497 ] ] }, { "type": "LineString", "coordinates": [ [ -87.697070000340744, 38.108649000202497 ], [ -87.697051999899102, 38.108857000088612 ] ] }, { "type": "LineString", "coordinates": [ [ -87.697051999899102, 38.108857000088612 ], [ -87.697034000355742, 38.10930699994276 ] ] }, { "type": "LineString", "coordinates": [ [ -87.697034000355742, 38.10930699994276 ], [ -87.697041000028435, 38.109579000106187 ] ] }, { "type": "LineString", "coordinates": [ [ -87.697041000028435, 38.109579000106187 ], [ -87.697039000378609, 38.109713000209361 ] ] }, { "type": "LineString", "coordinates": [ [ -87.697039000378609, 38.109713000209361 ], [ -87.697050000249263, 38.110226999907518 ] ] }, { "type": "LineString", "coordinates": [ [ -87.697050000249263, 38.110226999907518 ], [ -87.697040000203515, 38.111030000174026 ] ] }, { "type": "LineString", "coordinates": [ [ -87.697040000203515, 38.111030000174026 ], [ -87.697035000180648, 38.111433999793896 ] ] }, { "type": "LineString", "coordinates": [ [ -87.697035000180648, 38.111433999793896 ], [ -87.697032999632512, 38.111986999912659 ] ] }, { "type": "LineString", "coordinates": [ [ -87.697032999632512, 38.111986999912659 ], [ -87.697026999784725, 38.112330999967845 ] ] }, { "type": "LineString", "coordinates": [ [ -87.697026999784725, 38.112330999967845 ], [ -87.697032999632512, 38.114177999710655 ] ] }, { "type": "LineString", "coordinates": [ [ -87.697032999632512, 38.114177999710655 ], [ -87.697032999632512, 38.114294999742263 ] ] }, { "type": "LineString", "coordinates": [ [ -87.697032999632512, 38.114294999742263 ], [ -87.697026999784725, 38.114700999847926 ] ] }, { "type": "LineString", "coordinates": [ [ -87.697026999784725, 38.114700999847926 ], [ -87.6970250001349, 38.114856000062389 ] ] }, { "type": "LineString", "coordinates": [ [ -87.6970250001349, 38.114856000062389 ], [ -87.697015000089166, 38.116344000084382 ] ] }, { "type": "LineString", "coordinates": [ [ -87.697015000089166, 38.116344000084382 ], [ -87.697019000287128, 38.116522999658983 ] ] }, { "type": "LineString", "coordinates": [ [ -87.697019000287128, 38.116522999658983 ], [ -87.69700900024138, 38.11695099987179 ] ] }, { "type": "LineString", "coordinates": [ [ -87.69700900024138, 38.11695099987179 ], [ -87.697000000020537, 38.117048000070028 ] ] }, { "type": "LineString", "coordinates": [ [ -87.697000000020537, 38.117048000070028 ], [ -87.696994000172765, 38.11708000032575 ] ] }, { "type": "LineString", "coordinates": [ [ -87.696994000172765, 38.11708000032575 ], [ -87.696984999951923, 38.117125999873672 ] ] }, { "type": "LineString", "coordinates": [ [ -87.696984999951923, 38.117125999873672 ], [ -87.696976999556014, 38.117165999795077 ] ] }, { "type": "LineString", "coordinates": [ [ -87.696976999556014, 38.117165999795077 ], [ -87.696918999829691, 38.117287000183524 ] ] }, { "type": "LineString", "coordinates": [ [ -87.696918999829691, 38.117287000183524 ], [ -87.696906000309227, 38.117305999700683 ] ] }, { "type": "LineString", "coordinates": [ [ -87.696906000309227, 38.117305999700683 ], [ -87.696908999783957, 38.117325999968159 ] ] }, { "type": "LineString", "coordinates": [ [ -87.696908999783957, 38.117325999968159 ], [ -87.696774999889655, 38.124843000087751 ] ] }, { "type": "LineString", "coordinates": [ [ -87.696774999889655, 38.124843000087751 ], [ -87.688918000241458, 38.124710000131522 ] ] }, { "type": "LineString", "coordinates": [ [ -87.688918000241458, 38.124710000131522 ], [ -87.688917000416552, 38.124746000350818 ] ] }, { "type": "LineString", "coordinates": [ [ -87.688917000416552, 38.124746000350818 ], [ -87.688910999670455, 38.125045000131614 ] ] }, { "type": "LineString", "coordinates": [ [ -87.688910999670455, 38.125045000131614 ], [ -87.688904999822682, 38.12533699982292 ] ] }, { "type": "LineString", "coordinates": [ [ -87.688904999822682, 38.12533699982292 ], [ -87.688898999974867, 38.12598199993873 ] ] }, { "type": "LineString", "coordinates": [ [ -87.688898999974867, 38.12598199993873 ], [ -87.688883000081361, 38.126579000242941 ] ] }, { "type": "LineString", "coordinates": [ [ -87.688883000081361, 38.126579000242941 ], [ -87.688882000256456, 38.126689999963716 ] ] }, { "type": "LineString", "coordinates": [ [ -87.688882000256456, 38.126689999963716 ], [ -87.688858999791904, 38.128738000278609 ] ] }, { "type": "LineString", "coordinates": [ [ -87.688858999791904, 38.128738000278609 ], [ -87.688849999571076, 38.129149999958415 ] ] }, { "type": "LineString", "coordinates": [ [ -87.688849999571076, 38.129149999958415 ], [ -87.688847999921265, 38.129541999690289 ] ] }, { "type": "LineString", "coordinates": [ [ -87.688847999921265, 38.129541999690289 ], [ -87.688837000050611, 38.12993199968507 ] ] }, { "type": "LineString", "coordinates": [ [ -87.688837000050611, 38.12993199968507 ], [ -87.688831000202825, 38.130418999816882 ] ] }, { "type": "LineString", "coordinates": [ [ -87.688831000202825, 38.130418999816882 ], [ -87.688830000377905, 38.130531999793654 ] ] }, { "type": "LineString", "coordinates": [ [ -87.688830000377905, 38.130531999793654 ], [ -87.688826000179944, 38.130696999683117 ] ] }, { "type": "LineString", "coordinates": [ [ -87.688826000179944, 38.130696999683117 ], [ -87.68881500030929, 38.13202799994351 ] ] }, { "type": "LineString", "coordinates": [ [ -87.68881500030929, 38.13202799994351 ], [ -87.68881500030929, 38.132052999652487 ] ] }, { "type": "LineString", "coordinates": [ [ -87.68881500030929, 38.132052999652487 ], [ -87.688802999715421, 38.132749999820504 ] ] }, { "type": "LineString", "coordinates": [ [ -87.688802999715421, 38.132749999820504 ], [ -87.688802999715421, 38.133050999694412 ] ] }, { "type": "LineString", "coordinates": [ [ -87.688802999715421, 38.133050999694412 ], [ -87.688777999601058, 38.134256000018325 ] ] }, { "type": "LineString", "coordinates": [ [ -87.688777999601058, 38.134256000018325 ], [ -87.688759000232793, 38.135490000082974 ] ] }, { "type": "LineString", "coordinates": [ [ -87.688759000232793, 38.135490000082974 ], [ -87.688760000057712, 38.135659999763277 ] ] }, { "type": "LineString", "coordinates": [ [ -87.688760000057712, 38.135659999763277 ], [ -87.688760000057712, 38.135781999680503 ] ] }, { "type": "LineString", "coordinates": [ [ -87.688760000057712, 38.135781999680503 ], [ -87.688734999943364, 38.13749899978653 ] ] }, { "type": "LineString", "coordinates": [ [ -87.688734999943364, 38.13749899978653 ], [ -87.688734999943364, 38.137811000132345 ] ] }, { "type": "LineString", "coordinates": [ [ -87.688734999943364, 38.137811000132345 ], [ -87.688719000049815, 38.138880000047266 ] ] }, { "type": "LineString", "coordinates": [ [ -87.688719000049815, 38.138880000047266 ], [ -87.688718000224924, 38.138894999878509 ] ] }, { "type": "LineString", "coordinates": [ [ -87.688718000224924, 38.138894999878509 ], [ -87.688710999653907, 38.139087000271871 ] ] }, { "type": "LineString", "coordinates": [ [ -87.688710999653907, 38.139087000271871 ], [ -87.688692000285641, 38.140743999732329 ] ] }, { "type": "LineString", "coordinates": [ [ -87.688692000285641, 38.140743999732329 ], [ -87.688674999668891, 38.141361000153267 ] ] }, { "type": "LineString", "coordinates": [ [ -87.688674999668891, 38.141361000153267 ], [ -87.688673999843985, 38.141658999984699 ] ] }, { "type": "LineString", "coordinates": [ [ -87.688673999843985, 38.141658999984699 ], [ -87.688666000346387, 38.142047999813308 ] ] }, { "type": "LineString", "coordinates": [ [ -87.688666000346387, 38.142047999813308 ], [ -87.688662000148412, 38.1422109996861 ] ] }, { "type": "LineString", "coordinates": [ [ -87.688662000148412, 38.1422109996861 ], [ -87.688647999904717, 38.142927000249685 ] ] }, { "type": "LineString", "coordinates": [ [ -87.688647999904717, 38.142927000249685 ], [ -87.688631000186277, 38.143933000248595 ] ] }, { "type": "LineString", "coordinates": [ [ -87.688631000186277, 38.143933000248595 ], [ -87.688630000361385, 38.144319999899295 ] ] }, { "type": "LineString", "coordinates": [ [ -87.688630000361385, 38.144319999899295 ], [ -87.688600000224142, 38.145873999938658 ] ] }, { "type": "LineString", "coordinates": [ [ -87.688600000224142, 38.145873999938658 ], [ -87.688596999851086, 38.147538999882201 ] ] }, { "type": "LineString", "coordinates": [ [ -87.688596999851086, 38.147538999882201 ], [ -87.688581999782471, 38.14839300010685 ] ] }, { "type": "LineString", "coordinates": [ [ -87.688581999782471, 38.14839300010685 ], [ -87.688575999934685, 38.148483000029607 ] ] }, { "type": "LineString", "coordinates": [ [ -87.688575999934685, 38.148483000029607 ], [ -87.688556999668108, 38.150071999829152 ] ] }, { "type": "LineString", "coordinates": [ [ -87.688556999668108, 38.150071999829152 ], [ -87.688524999881068, 38.152117000126303 ] ] }, { "type": "LineString", "coordinates": [ [ -87.688524999881068, 38.152117000126303 ], [ -87.688524999881068, 38.152452000068791 ] ] }, { "type": "LineString", "coordinates": [ [ -87.688524999881068, 38.152452000068791 ], [ -87.688509999812467, 38.153627000049703 ] ] }, { "type": "LineString", "coordinates": [ [ -87.688509999812467, 38.153627000049703 ], [ -87.6884989999418, 38.153763000350374 ] ] }, { "type": "LineString", "coordinates": [ [ -87.6884989999418, 38.153763000350374 ], [ -87.6884989999418, 38.153810999897274 ] ] }, { "type": "LineString", "coordinates": [ [ -87.6884989999418, 38.153810999897274 ], [ -87.688524000056162, 38.160796000043469 ] ] }, { "type": "LineString", "coordinates": [ [ -87.688524000056162, 38.160796000043469 ], [ -87.688524000056162, 38.160833000278437 ] ] }, { "type": "LineString", "coordinates": [ [ -87.688524000056162, 38.160833000278437 ], [ -87.688524000056162, 38.160858000006542 ] ] }, { "type": "LineString", "coordinates": [ [ -87.688524000056162, 38.160858000006542 ], [ -87.688524000056162, 38.160872000104845 ] ] }, { "type": "LineString", "coordinates": [ [ -87.688524000056162, 38.160872000104845 ], [ -87.688524999881068, 38.160980000167271 ] ] }, { "type": "LineString", "coordinates": [ [ -87.688524999881068, 38.160980000167271 ], [ -87.688524999881068, 38.161075000168431 ] ] }, { "type": "LineString", "coordinates": [ [ -87.688524999881068, 38.161075000168431 ], [ -87.688524999881068, 38.161122999846839 ] ] }, { "type": "LineString", "coordinates": [ [ -87.688524999881068, 38.161122999846839 ], [ -87.688524999881068, 38.161147000027363 ] ] }, { "type": "LineString", "coordinates": [ [ -87.688524999881068, 38.161147000027363 ], [ -87.688524999881068, 38.161164999980983 ] ] }, { "type": "LineString", "coordinates": [ [ -87.688524999881068, 38.161164999980983 ], [ -87.688525999705973, 38.161635999777907 ] ] }, { "type": "LineString", "coordinates": [ [ -87.688525999705973, 38.161635999777907 ], [ -87.688524999881068, 38.16187199966712 ] ] }, { "type": "LineString", "coordinates": [ [ -87.688524999881068, 38.16187199966712 ], [ -87.688525999705973, 38.161930999696679 ] ] }, { "type": "LineString", "coordinates": [ [ -87.688525999705973, 38.161930999696679 ], [ -87.688525999705973, 38.161958000041444 ] ] }, { "type": "LineString", "coordinates": [ [ -87.688525999705973, 38.161958000041444 ], [ -87.688528000254109, 38.162167000043667 ] ] }, { "type": "LineString", "coordinates": [ [ -87.688528000254109, 38.162167000043667 ], [ -87.688528000254109, 38.162224000261368 ] ] }, { "type": "LineString", "coordinates": [ [ -87.688528000254109, 38.162224000261368 ], [ -87.688518000208376, 38.166156000097118 ] ] }, { "type": "LineString", "coordinates": [ [ -87.688518000208376, 38.166156000097118 ], [ -87.688498000116894, 38.166188000010401 ] ] }, { "type": "LineString", "coordinates": [ [ -87.688498000116894, 38.166188000010401 ], [ -87.688472000177612, 38.166228999967053 ] ] }, { "type": "LineString", "coordinates": [ [ -87.688472000177612, 38.166228999967053 ], [ -87.688442999865316, 38.166286999918007 ] ] }, { "type": "LineString", "coordinates": [ [ -87.688442999865316, 38.166286999918007 ], [ -87.688417999750953, 38.166374000111063 ] ] }, { "type": "LineString", "coordinates": [ [ -87.688417999750953, 38.166374000111063 ], [ -87.688401999857419, 38.166463999738781 ] ] }, { "type": "LineString", "coordinates": [ [ -87.688401999857419, 38.166463999738781 ], [ -87.688385999963899, 38.166601000190873 ] ] }, { "type": "LineString", "coordinates": [ [ -87.688385999963899, 38.166601000190873 ], [ -87.688380000116112, 38.167181999679677 ] ] }, { "type": "LineString", "coordinates": [ [ -87.688380000116112, 38.167181999679677 ], [ -87.688370999895284, 38.167423000321271 ] ] }, { "type": "LineString", "coordinates": [ [ -87.688370999895284, 38.167423000321271 ], [ -87.688371999720204, 38.167584999923776 ] ] }, { "type": "LineString", "coordinates": [ [ -87.688371999720204, 38.167584999923776 ], [ -87.688371999720204, 38.167608000029972 ] ] }, { "type": "LineString", "coordinates": [ [ -87.688371999720204, 38.167608000029972 ], [ -87.688371999720204, 38.16761900004748 ] ] }, { "type": "LineString", "coordinates": [ [ -87.688371999720204, 38.16761900004748 ], [ -87.688377999567976, 38.168207000301621 ] ] }, { "type": "LineString", "coordinates": [ [ -87.688377999567976, 38.168207000301621 ], [ -87.68837400026834, 38.168419000210065 ] ] } ] } },
{ "type": "Feature", "properties": { "AREALAND": 75861298, "AREAWATER": 1393195, "BASENAME": "77", "CENTLAT": "+37.9569042", "CENTLON": "-087.5329811", "FUNCSTAT": "N", "GEOID": "18077", "HU100": null, "INTPTLAT": "+37.9570372", "INTPTLON": "-087.5334932", "LDTYP": "O", "LSADC": "LL", "LSY": "2026", "MTFCC": "G5220", "NAME": "State House District 77", "OBJECTID": 2789, "OID": "2139042393386385", "POP100": null, "SLDL": "077", "STATE": "18" }, "geometry": { "type": "Polygon", "coordinates": [ [ [ -87.610513000022678, 37.947844000235712 ], [ -87.609659000428167, 37.980996000200157 ], [ -87.604787000061151, 37.980926999892382 ], [ -87.606386000368573, 37.982424000070914 ], [ -87.60610900035914, 37.983261000236254 ], [ -87.605356000148632, 37.983153999893815 ], [ -87.604987000077699, 37.98343999982508 ], [ -87.604863000229145, 37.987793000240281 ], [ -87.607761000370004, 37.989041000197581 ], [ -87.609213000364321, 37.990688999755037 ], [ -87.609996999638639, 37.991089999647095 ], [ -87.613367999607519, 37.991297999672291 ], [ -87.614709000172084, 37.9905069997588 ], [ -87.615602000124682, 37.991712000084384 ], [ -87.616505999947904, 37.995796000090834 ], [ -87.618320000340475, 37.994971000055614 ], [ -87.618219000058133, 37.998921999689678 ], [ -87.613709000089386, 37.998834999648665 ], [ -87.613705999716331, 37.997035000151357 ], [ -87.609727000200238, 37.996949000274618 ], [ -87.607788000134178, 37.99846100023337 ], [ -87.610143999951745, 38.001656000200164 ], [ -87.610199000203338, 38.003180000297128 ], [ -87.605702999579961, 38.002579000136016 ], [ -87.602805000337412, 38.000753000270841 ], [ -87.600005000105824, 38.000690000091268 ], [ -87.599991999687049, 38.003304000186155 ], [ -87.598260000208541, 38.003117000079143 ], [ -87.597954999711718, 38.003700000254241 ], [ -87.598608000363086, 38.004260000167662 ], [ -87.597122000033593, 38.004831999986756 ], [ -87.596024999866501, 38.004722000150267 ], [ -87.59533000028064, 38.004162000226067 ], [ -87.595163999700972, 38.004887999659914 ], [ -87.594455999696308, 38.005201000053937 ], [ -87.59454000026021, 38.005706000274238 ], [ -87.59359500042909, 38.005355000046819 ], [ -87.592442000185514, 38.005564000126462 ], [ -87.592595000346378, 38.004805999770014 ], [ -87.591761999769929, 38.004388999826034 ], [ -87.591539000187197, 38.002629999814495 ], [ -87.590011000024873, 38.001356000262398 ], [ -87.591259999629628, 38.000629999836264 ], [ -87.59102399962805, 38.000168999790432 ], [ -87.588047999669371, 38.000105999817087 ], [ -87.586698999607222, 38.0025459998255 ], [ -87.585232000442602, 38.003203999995179 ], [ -87.584316999850401, 38.00316800009125 ], [ -87.578585999865993, 38.001356999773428 ], [ -87.578239000434678, 38.000425000069299 ], [ -87.578385999849459, 37.999012999923195 ], [ -87.577875000386598, 37.997860000331457 ], [ -87.574629000091178, 37.995383999967487 ], [ -87.574747000091975, 37.991303000036631 ], [ -87.573604999719038, 37.991276999979007 ], [ -87.573620999612572, 37.990368000313346 ], [ -87.570879000005633, 37.990304000047161 ], [ -87.570934000257211, 37.988465999927861 ], [ -87.565656000009326, 37.988381000312152 ], [ -87.565587000412364, 37.991202000115159 ], [ -87.560993999704607, 37.991196000094391 ], [ -87.560976999986181, 37.99244000026907 ], [ -87.560895999795335, 37.9921269999207 ], [ -87.557120999595398, 37.992072000051778 ], [ -87.556620000178299, 37.992237999878178 ], [ -87.556293999765046, 37.993852999852002 ], [ -87.54740500024711, 37.993878000091541 ], [ -87.547411000094883, 37.99207400003484 ], [ -87.538336999730703, 37.991836999889799 ], [ -87.538499999937301, 37.981630000022442 ], [ -87.536838999705608, 37.9818319998829 ], [ -87.535394000282309, 37.982555000144096 ], [ -87.531943999772395, 37.986501999883117 ], [ -87.529234999777401, 37.988742999707966 ], [ -87.529238999975362, 37.988091000340653 ], [ -87.520094000364381, 37.98796900031288 ], [ -87.520118999580419, 37.985772999814387 ], [ -87.501781999604461, 37.989333999686529 ], [ -87.501784000152597, 37.988939999993811 ], [ -87.495797000075157, 37.986980999844654 ], [ -87.492673999803387, 37.984761000158869 ], [ -87.492594000335771, 37.9767699998593 ], [ -87.474053000145304, 37.97667299985676 ], [ -87.474293000344815, 37.969354999904922 ], [ -87.483017000006328, 37.969423999760977 ], [ -87.483577999697886, 37.969183000309819 ], [ -87.486691999748828, 37.969471999992066 ], [ -87.486897999613163, 37.967908999886994 ], [ -87.492676000351523, 37.967964000162837 ], [ -87.492811000070745, 37.954951999935119 ], [ -87.471379000310435, 37.954822000327596 ], [ -87.471442000059625, 37.951646999813931 ], [ -87.471996999903396, 37.95165399971436 ], [ -87.472422000050855, 37.950813999818756 ], [ -87.471396000028861, 37.950379000272335 ], [ -87.471391999830914, 37.949173999934033 ], [ -87.470954999987896, 37.948462000017862 ], [ -87.471746999658137, 37.947657999991932 ], [ -87.471200000210288, 37.947357000050992 ], [ -87.468015999839167, 37.947703000265513 ], [ -87.450707000433312, 37.947762999878947 ], [ -87.45121899972105, 37.940808000143313 ], [ -87.462089000036173, 37.935474999722885 ], [ -87.469328000091394, 37.930663999711051 ], [ -87.469294999581109, 37.930076999821424 ], [ -87.470578000419366, 37.929731000229502 ], [ -87.476348999688412, 37.926529000241686 ], [ -87.480766999595659, 37.923580999702388 ], [ -87.487501999860726, 37.91808199972013 ], [ -87.497630999660899, 37.910698999964964 ], [ -87.503467000125596, 37.907893000083391 ], [ -87.506364000441565, 37.907035000319716 ], [ -87.506537999620505, 37.906676999664114 ], [ -87.509720000341829, 37.906027999871284 ], [ -87.511018000350361, 37.906191999818802 ], [ -87.517903000403265, 37.911082000270284 ], [ -87.521999000095235, 37.913307999864912 ], [ -87.53176700022037, 37.916303000028805 ], [ -87.548700999707506, 37.923972999670056 ], [ -87.556045000243031, 37.928167999771844 ], [ -87.560895999795335, 37.932113000290407 ], [ -87.564664000322551, 37.93583400019908 ], [ -87.569083999879624, 37.941560000120411 ], [ -87.572792000132409, 37.94847699994795 ], [ -87.573567000084196, 37.951721999724164 ], [ -87.577511000338546, 37.951661000322481 ], [ -87.575141000277256, 37.95548899979314 ], [ -87.574512999740236, 37.958295999667484 ], [ -87.574260000020246, 37.961593999847572 ], [ -87.574403999960296, 37.963576999797297 ], [ -87.575045999842715, 37.965909000174229 ], [ -87.5766369997542, 37.968784000290405 ], [ -87.577809000264367, 37.970198000014648 ], [ -87.581971000078582, 37.973032999892531 ], [ -87.584922999747803, 37.974531000221546 ], [ -87.587408000335117, 37.975276000078395 ], [ -87.594844000033817, 37.975109000245254 ], [ -87.597763999915998, 37.973896999972204 ], [ -87.600766999638836, 37.971967999922143 ], [ -87.602284999755412, 37.969750999828818 ], [ -87.603402999838906, 37.966813999790332 ], [ -87.603464999763176, 37.959897999846355 ], [ -87.603904999979221, 37.95698699967884 ], [ -87.604906999711744, 37.954518000249337 ], [ -87.604941999871841, 37.952584000184068 ], [ -87.605704000303177, 37.949847000248788 ], [ -87.607217000396872, 37.947668999825211 ], [ -87.610615999954845, 37.944538000253914 ], [ -87.610513000022678, 37.947844000235712 ] ] ] } }
]
}
