{
"type": "FeatureCollection",
"name": "township",
"crs": { "type": "name", "properties": { "name": "urn:ogc:def:crs:OGC:1.3:CRS84" } },
"features": [
{ "type": "Feature", "properties": { "AREALAND": 87105345, "AREAWATER": 1115278, "BASENAME": "Center", "CENTLAT": "+38.0422639", "CENTLON": "-087.5397419", "CNECTA": null, "COUNTY": "163", "COUSUB": "11674", "COUSUBCC": "T1", "COUSUBNS": "00453195", "FUNCSTAT": "A", "GEOID": "1816311674", "HU100": null, "INTPTLAT": "+38.0459516", "INTPTLON": "-087.5397816", "LSADC": "44", "MTFCC": "G4040", "NAME": "Center township", "NECTA": null, "NECTADIV": null, "OBJECTID": 7232, "OID": "27690405271412", "POP100": null, "STATE": "18", "UR": null }, "geometry": { "type": "Polygon", "coordinates": [ [ [ -87.470703000092826, 38.034802000079395 ], [ -87.470606000008445, 38.033585000165651 ], [ -87.470953000338085, 38.03305299967726 ], [ -87.471713000221271, 38.032678000267133 ], [ -87.473150000146987, 38.032596000332767 ], [ -87.474896999694082, 38.033255000126204 ], [ -87.475583999782359, 38.032542999981224 ], [ -87.475618000117535, 38.030841999826144 ], [ -87.479086000170781, 38.030151999998374 ], [ -87.47921000001935, 38.026898999821213 ], [ -87.480297999965615, 38.025869000090978 ], [ -87.483145000052858, 38.026728999716177 ], [ -87.484927999584968, 38.028816000187184 ], [ -87.486033999972889, 38.029246999724478 ], [ -87.48920099972726, 38.028678000321456 ], [ -87.491939999859468, 38.027380000308248 ], [ -87.492963000406704, 38.025966000143185 ], [ -87.492734999902765, 38.024240000336576 ], [ -87.493847999963364, 38.023488000114199 ], [ -87.493796000084828, 38.023004999704575 ], [ -87.492771999712673, 38.021717999736431 ], [ -87.492770000062862, 38.019837999971607 ], [ -87.49380500030567, 38.015897000169119 ], [ -87.49515799966747, 38.012486000031174 ], [ -87.496393999751731, 38.011335000121548 ], [ -87.497921000089136, 38.010926999887594 ], [ -87.499789000010054, 38.011287999754067 ], [ -87.501829000358455, 38.012410999915417 ], [ -87.502739000029464, 38.012526999939311 ], [ -87.506602999917845, 38.010220999929921 ], [ -87.507188999723766, 38.00921499990887 ], [ -87.5074370003192, 38.007326999669026 ], [ -87.507044999783716, 38.006315000081941 ], [ -87.505490999682138, 38.004332000301304 ], [ -87.504950999906981, 38.002409000243809 ], [ -87.505945999966812, 38.000306000017652 ], [ -87.507793999796249, 37.998463000042292 ], [ -87.508776000335601, 37.997961000288221 ], [ -87.512088999679861, 37.998795000124062 ], [ -87.513934999859501, 37.998790000270397 ], [ -87.515405000295473, 37.998308999732885 ], [ -87.519478000421245, 37.995856000053223 ], [ -87.521846999759262, 37.995420000153018 ], [ -87.523152000338825, 37.995520000339681 ], [ -87.527093000220091, 37.997086000145821 ], [ -87.527463000115944, 37.998143000195597 ], [ -87.52713500005288, 38.000234999704496 ], [ -87.529942999782065, 38.003590000135247 ], [ -87.531703999572869, 38.004966999657036 ], [ -87.534267999802893, 38.005980999758435 ], [ -87.535635000306726, 38.006098999648138 ], [ -87.536369000250644, 38.005916000217972 ], [ -87.538417999921549, 38.004132999936594 ], [ -87.540141000077526, 38.00395200021363 ], [ -87.541090999931498, 38.004480999822349 ], [ -87.542131000197202, 38.005958999865939 ], [ -87.545637999710195, 38.006634999659816 ], [ -87.548164000305391, 38.009048000172754 ], [ -87.55096600018679, 38.009666000067057 ], [ -87.552740000396383, 38.009193000279041 ], [ -87.557652000048051, 38.006246000228813 ], [ -87.558821000185162, 38.006227000165545 ], [ -87.562227000314124, 38.007368000339135 ], [ -87.563827000446466, 38.007111000093168 ], [ -87.564380999567035, 38.006234999969266 ], [ -87.564556000367517, 38.004003999827844 ], [ -87.566372000409913, 38.003356999743666 ], [ -87.567083999714214, 38.002535999921548 ], [ -87.566256000058956, 38.000041000023799 ], [ -87.566459000448546, 37.996495000324174 ], [ -87.568806999870191, 37.994525000269704 ], [ -87.573223999952532, 37.994000999815263 ], [ -87.577875000386598, 37.997860000331457 ], [ -87.578385999849459, 37.999012999923195 ], [ -87.578239000434678, 38.000425000069299 ], [ -87.578585999865993, 38.001356999773428 ], [ -87.584316999850401, 38.00316800009125 ], [ -87.585744999555274, 38.003114000202245 ], [ -87.586698999607222, 38.0025459998255 ], [ -87.588979000155121, 37.998338000201983 ], [ -87.589342000378281, 37.996604000183474 ], [ -87.5922580000625, 37.997328000274905 ], [ -87.594952999813756, 37.999716999726552 ], [ -87.594661999560628, 38.000174000257914 ], [ -87.593931999814671, 37.999419999671368 ], [ -87.592105999726527, 37.999354999977939 ], [ -87.593016000295862, 37.999937000093091 ], [ -87.592967999716976, 38.000838999934153 ], [ -87.592246000366927, 38.001301000235053 ], [ -87.591926999626395, 38.000497999951882 ], [ -87.59102399962805, 38.000168999790432 ], [ -87.591259999629628, 38.000629999836264 ], [ -87.590011000024873, 38.00131199981908 ], [ -87.591539000187197, 38.002629999814495 ], [ -87.591761999769929, 38.004388999826034 ], [ -87.592566999858974, 38.004718000165973 ], [ -87.592511999607396, 38.005618999787636 ], [ -87.59359500042909, 38.005355000046819 ], [ -87.594594999613477, 38.005706000274238 ], [ -87.594455999696308, 38.005201000053937 ], [ -87.595163999700972, 38.004887999659914 ], [ -87.59533000028064, 38.004162000226067 ], [ -87.596024999866501, 38.004722000150267 ], [ -87.597122000033593, 38.004831999986756 ], [ -87.598608000363086, 38.004260000167662 ], [ -87.597954999711718, 38.003700000254241 ], [ -87.598260000208541, 38.003117000079143 ], [ -87.599991999687049, 38.003304000186155 ], [ -87.598818000425368, 38.041352000020751 ], [ -87.598031999704602, 38.080050999895107 ], [ -87.47249900004374, 38.078162000349188 ], [ -87.473217000094138, 38.042323000231292 ], [ -87.473011000229818, 38.03513500020609 ], [ -87.470688000024211, 38.035023000336665 ], [ -87.470703000092826, 38.034802000079395 ] ] ] } },
{ "type": "Feature", "properties": { "AREALAND": 71623556, "AREAWATER": 1528242, "BASENAME": "Perry", "CENTLAT": "+37.9673786", "CENTLON": "-087.6567871", "CNECTA": null, "COUNTY": "163", "COUSUB": "59166", "COUSUBCC": "T1", "COUSUBNS": "00453726", "FUNCSTAT": "A", "GEOID": "1816359166", "HU100": null, "INTPTLAT": "+37.9660000", "INTPTLON": "-087.6489233", "LSADC": "44", "MTFCC": "G4040", "NAME": "Perry township", "NECTA": null, "NECTADIV": null, "OBJECTID": 7249, "OID": "27690405271416", "POP100": null, "STATE": "18", "UR": null }, "geometry": { "type": "Polygon", "coordinates": [ [ [ -87.700704999900267, 37.897789000314042 ], [ -87.700467000248906, 37.898890000254632 ], [ -87.699955000062829, 37.926197999767894 ], [ -87.699601999885402, 37.929394999669427 ], [ -87.698273999739641, 38.008330999869258 ], [ -87.673307999803811, 38.008204999737103 ], [ -87.673742999997003, 38.008298000024119 ], [ -87.646315999763331, 38.008549999752155 ], [ -87.599902999998577, 38.00765199974213 ], [ -87.600544000056104, 37.978424999764862 ], [ -87.609723999827182, 37.978548999727202 ], [ -87.610615999954845, 37.944538000253914 ], [ -87.622428999552952, 37.936203000072972 ], [ -87.617403999923368, 37.938269999646351 ], [ -87.618132999844406, 37.935112000091358 ], [ -87.618733999718955, 37.933928000014262 ], [ -87.620867999778682, 37.931424999948426 ], [ -87.623520999697149, 37.930747000020986 ], [ -87.626057000338065, 37.933522999995695 ], [ -87.627371000240132, 37.934397999818927 ], [ -87.627551000165184, 37.935122999677148 ], [ -87.627362999844223, 37.936380999929732 ], [ -87.626370000332528, 37.938028999984347 ], [ -87.626701999695229, 37.939111000199169 ], [ -87.625874000039971, 37.941352999747778 ], [ -87.62476500017732, 37.942434000303599 ], [ -87.624807000010122, 37.943098000105408 ], [ -87.623914000057539, 37.944505000051379 ], [ -87.621015000091759, 37.946831000211112 ], [ -87.621119999673752, 37.947215000314486 ], [ -87.621634000407965, 37.947528000227578 ], [ -87.622416999857364, 37.94739599974104 ], [ -87.625903000352295, 37.949165000061697 ], [ -87.626341000020204, 37.947847000247215 ], [ -87.627285000026419, 37.947022999805249 ], [ -87.629774999738274, 37.947996999957539 ], [ -87.631774000078792, 37.946739999730184 ], [ -87.63225399957949, 37.945531000253595 ], [ -87.632863999674854, 37.945706999649722 ], [ -87.633640000349885, 37.947235000323893 ], [ -87.634688000113172, 37.947571000093376 ], [ -87.63584600037963, 37.947301999926232 ], [ -87.638012000226382, 37.946319000257404 ], [ -87.639470000068499, 37.943925000104421 ], [ -87.639346000219945, 37.942830999764745 ], [ -87.638300000106469, 37.940916000194925 ], [ -87.638372999901392, 37.940575999810626 ], [ -87.638946000186849, 37.94042300022263 ], [ -87.641512000066697, 37.94095400013601 ], [ -87.641958999955435, 37.940080000062871 ], [ -87.641568000143195, 37.93845499990617 ], [ -87.642184000086345, 37.938189000071546 ], [ -87.64290799998453, 37.938502000173749 ], [ -87.643470000399304, 37.938273999710553 ], [ -87.643210999933231, 37.936529000294357 ], [ -87.642517999997182, 37.935146999669406 ], [ -87.644293000031695, 37.930475999669909 ], [ -87.647260999594437, 37.928920999899731 ], [ -87.649719000417576, 37.928261999969138 ], [ -87.650106000031855, 37.92783400017931 ], [ -87.650210999613847, 37.927008000335597 ], [ -87.651532999911836, 37.927536999761521 ], [ -87.652425999864406, 37.92837200033383 ], [ -87.655103999897264, 37.929030999986999 ], [ -87.655990000177155, 37.929024999844778 ], [ -87.657381000072107, 37.928280999670278 ], [ -87.659339000404714, 37.928755000023223 ], [ -87.660422000328097, 37.927762999907046 ], [ -87.663706000258344, 37.926317000223243 ], [ -87.666392999613691, 37.923887999793024 ], [ -87.666850000446516, 37.922512000303321 ], [ -87.668889999896578, 37.92246399985634 ], [ -87.670300999883011, 37.922069999875568 ], [ -87.672400999607532, 37.919657000240512 ], [ -87.673111000160333, 37.919595999735037 ], [ -87.673613000300662, 37.919986999774402 ], [ -87.67286699976286, 37.922124999749649 ], [ -87.673159999665813, 37.922539999663741 ], [ -87.67385900034796, 37.922542000123826 ], [ -87.676698000039281, 37.921008999652756 ], [ -87.678520999754383, 37.919532000137806 ], [ -87.679432999973528, 37.918474999874896 ], [ -87.679818999762901, 37.917183999666889 ], [ -87.682832000429812, 37.916036000160844 ], [ -87.6853940001117, 37.916511000029324 ], [ -87.684855000161448, 37.915268000289643 ], [ -87.685267999715009, 37.914853999718126 ], [ -87.686550999654941, 37.9157160003031 ], [ -87.688546999622375, 37.915688999730968 ], [ -87.689006999929916, 37.91504399996839 ], [ -87.687339999850437, 37.913580999698169 ], [ -87.68722299967456, 37.912397000177464 ], [ -87.690011000210575, 37.909578999937764 ], [ -87.690354000342253, 37.907970000136324 ], [ -87.688749000187059, 37.906113999932579 ], [ -87.688125999672891, 37.904828999674272 ], [ -87.685872999787506, 37.904794999958419 ], [ -87.684989999880671, 37.904206000303233 ], [ -87.684652999596764, 37.903521000117884 ], [ -87.688177999551442, 37.902697999839148 ], [ -87.69678999995827, 37.898522999977772 ], [ -87.700786000091128, 37.897419999784091 ], [ -87.700704999900267, 37.897789000314042 ] ] ] } },
{ "type": "Feature", "properties": { "AREALAND": 71229072, "AREAWATER": 2598407, "BASENAME": "Union", "CENTLAT": "+37.8773377", "CENTLON": "-087.6383397", "CNECTA": null, "COUNTY": "163", "COUSUB": "77696", "COUSUBCC": "T1", "COUSUBNS": "00453937", "FUNCSTAT": "A", "GEOID": "1816377696", "HU100": null, "INTPTLAT": "+37.8751603", "INTPTLON": "-087.6280260", "LSADC": "44", "MTFCC": "G4040", "NAME": "Union township", "NECTA": null, "NECTADIV": null, "OBJECTID": 7250, "OID": "27690405271419", "POP100": null, "STATE": "18", "UR": null }, "geometry": { "type": "Polygon", "coordinates": [ [ [ -87.684787000389377, 37.903976000263917 ], [ -87.685914999620294, 37.904808000060108 ], [ -87.688125999672891, 37.904828999674272 ], [ -87.688882000256456, 37.906299999688365 ], [ -87.690269999778351, 37.90770800017907 ], [ -87.690362999664785, 37.908715000316242 ], [ -87.690074999784684, 37.909487000063656 ], [ -87.68722299967456, 37.912397000177464 ], [ -87.687339999850437, 37.913580999698169 ], [ -87.688974000317955, 37.91497899997529 ], [ -87.688786999821886, 37.915536000081403 ], [ -87.688156999635041, 37.915829000201505 ], [ -87.686804000273227, 37.915773999871242 ], [ -87.685267999715009, 37.914853999718126 ], [ -87.684855000161448, 37.915268000289643 ], [ -87.6853940001117, 37.916511000029324 ], [ -87.682832000429812, 37.916036000160844 ], [ -87.679818999762901, 37.917183999666889 ], [ -87.679432999973528, 37.918474999874896 ], [ -87.678520999754383, 37.919532000137806 ], [ -87.676698000039281, 37.921008999652756 ], [ -87.67385900034796, 37.922542000123826 ], [ -87.673159999665813, 37.922539999663741 ], [ -87.67286699976286, 37.922124999749649 ], [ -87.673613000300662, 37.919986999774402 ], [ -87.673111000160333, 37.919595999735037 ], [ -87.672400999607532, 37.919657000240512 ], [ -87.670300999883011, 37.922069999875568 ], [ -87.668889999896578, 37.92246399985634 ], [ -87.666850000446516, 37.922512000303321 ], [ -87.666392999613691, 37.923887999793024 ], [ -87.663706000258344, 37.926317000223243 ], [ -87.660422000328097, 37.927762999907046 ], [ -87.659339000404714, 37.928755000023223 ], [ -87.657381000072107, 37.928280999670278 ], [ -87.655990000177155, 37.929024999844778 ], [ -87.655103999897264, 37.929030999986999 ], [ -87.652425999864406, 37.92837200033383 ], [ -87.651532999911836, 37.927536999761521 ], [ -87.650210999613847, 37.927008000335597 ], [ -87.649753999679362, 37.928240000159882 ], [ -87.647260999594437, 37.928920999899731 ], [ -87.644293000031695, 37.930475999669909 ], [ -87.643930999633454, 37.931004999651847 ], [ -87.642517999997182, 37.935146999669406 ], [ -87.643210999933231, 37.936529000294357 ], [ -87.643533000148508, 37.938140000276697 ], [ -87.64290799998453, 37.938502000173749 ], [ -87.642184000086345, 37.938189000071546 ], [ -87.641568000143195, 37.93845499990617 ], [ -87.641958999955435, 37.940080000062871 ], [ -87.641512000066697, 37.94095400013601 ], [ -87.638946000186849, 37.94042300022263 ], [ -87.638372999901392, 37.940575999810626 ], [ -87.638300000106469, 37.940916000194925 ], [ -87.639346000219945, 37.942830999764745 ], [ -87.639470000068499, 37.943925000104421 ], [ -87.638012000226382, 37.946319000257404 ], [ -87.634688000113172, 37.947571000093376 ], [ -87.633640000349885, 37.947235000323893 ], [ -87.632863999674854, 37.945706999649722 ], [ -87.63225399957949, 37.945531000253595 ], [ -87.631774000078792, 37.946739999730184 ], [ -87.629774999738274, 37.947996999957539 ], [ -87.627285000026419, 37.947022999805249 ], [ -87.626341000020204, 37.947847000247215 ], [ -87.626069000033652, 37.948972999689666 ], [ -87.625756999864095, 37.949131999812117 ], [ -87.622416999857364, 37.94739599974104 ], [ -87.621467000003378, 37.947462999904914 ], [ -87.620988000327586, 37.946918999821762 ], [ -87.623914000057539, 37.944505000051379 ], [ -87.624807000010122, 37.943098000105408 ], [ -87.62476500017732, 37.942434000303599 ], [ -87.625874000039971, 37.941352999747778 ], [ -87.626701999695229, 37.939111000199169 ], [ -87.626370000332528, 37.938028999984347 ], [ -87.627362999844223, 37.936380999929732 ], [ -87.627536999921489, 37.93541999991541 ], [ -87.627371000240132, 37.934397999818927 ], [ -87.626057000338065, 37.933522999995695 ], [ -87.623520999697149, 37.930747000020986 ], [ -87.624596999947826, 37.930278000026441 ], [ -87.625895999781278, 37.928829000125432 ], [ -87.62684900000832, 37.926754000124134 ], [ -87.627269000132898, 37.924837999917273 ], [ -87.627316999813473, 37.920401999706172 ], [ -87.62536799970168, 37.915516999922048 ], [ -87.62396500011117, 37.913458999897863 ], [ -87.621786999670519, 37.91139700030584 ], [ -87.62194800022732, 37.909528000106498 ], [ -87.619500000348253, 37.906569000347879 ], [ -87.613058999811059, 37.902164000325477 ], [ -87.609948999958078, 37.900326000066386 ], [ -87.606917999747822, 37.898997000012066 ], [ -87.595887999599157, 37.892001000051813 ], [ -87.587141000371432, 37.884858000101019 ], [ -87.584989999694955, 37.881178999938548 ], [ -87.583736999892253, 37.878080000202672 ], [ -87.583925000213242, 37.872484999730951 ], [ -87.586303999597021, 37.872492999923232 ], [ -87.586392000358885, 37.870542000170602 ], [ -87.588035999973826, 37.868983999749979 ], [ -87.588085000377632, 37.867480000094645 ], [ -87.589201999737881, 37.863744999828015 ], [ -87.590255000422346, 37.863453000129624 ], [ -87.591114999864658, 37.862134000353947 ], [ -87.591457000171431, 37.860369000268285 ], [ -87.590267000117919, 37.858589999976395 ], [ -87.594741000101649, 37.853389000004846 ], [ -87.597532000112409, 37.848047000340976 ], [ -87.60078000005764, 37.845481000195178 ], [ -87.606552999874836, 37.838696000185799 ], [ -87.609886000208888, 37.836331000277305 ], [ -87.612446000240951, 37.833608000039554 ], [ -87.615345000206716, 37.831882000192259 ], [ -87.620989000152491, 37.83014299990144 ], [ -87.627274999980685, 37.828671000261508 ], [ -87.640711000175628, 37.82643999982794 ], [ -87.644160999787232, 37.826189000288608 ], [ -87.653837999675758, 37.826087000039585 ], [ -87.67034400043903, 37.827961999830904 ], [ -87.673763000088499, 37.82962299971603 ], [ -87.679411000232221, 37.836525000183009 ], [ -87.679685999693532, 37.838177000292752 ], [ -87.680863000226552, 37.840952999685278 ], [ -87.680998999770679, 37.844550000144693 ], [ -87.682097999587569, 37.846783000250213 ], [ -87.681382000085307, 37.851200999654601 ], [ -87.681684000209103, 37.856273000086908 ], [ -87.680814999647637, 37.857970000272161 ], [ -87.677792999658237, 37.861179999940113 ], [ -87.676328999968348, 37.864640000315219 ], [ -87.674678999607295, 37.86669499973474 ], [ -87.674420000039518, 37.867693999974357 ], [ -87.669876999560486, 37.874840999660272 ], [ -87.669291999579485, 37.875329999672481 ], [ -87.666714000004063, 37.880037999903934 ], [ -87.664055000237809, 37.887339999954186 ], [ -87.664375999729856, 37.889730000043052 ], [ -87.665373000337823, 37.893351000288909 ], [ -87.666840000400768, 37.895762999802791 ], [ -87.670501999724465, 37.898983000105638 ], [ -87.67501099986832, 37.901642999724324 ], [ -87.679956000030259, 37.903220000198104 ], [ -87.682443000267384, 37.903616000053603 ], [ -87.684652999596764, 37.903521000117884 ], [ -87.684787000389377, 37.903976000263917 ] ] ] } },
{ "type": "Feature", "properties": { "AREALAND": 73958896, "AREAWATER": 726086, "BASENAME": "German", "CENTLAT": "+38.0473354", "CENTLON": "-087.6460899", "CNECTA": null, "COUNTY": "163", "COUSUB": "27486", "COUSUBCC": "T1", "COUSUBNS": "00453328", "FUNCSTAT": "A", "GEOID": "1816327486", "HU100": null, "INTPTLAT": "+38.0438601", "INTPTLON": "-087.6442543", "LSADC": "44", "MTFCC": "G4040", "NAME": "German township", "NECTA": null, "NECTADIV": null, "OBJECTID": 7251, "OID": "27690405271413", "POP100": null, "STATE": "18", "UR": null }, "geometry": { "type": "Polygon", "coordinates": [ [ [ -87.698340999686792, 38.011329000332317 ], [ -87.697817999630061, 38.032378999718439 ], [ -87.697367000441659, 38.08030199972044 ], [ -87.634626000188888, 38.080407999824594 ], [ -87.634642999907328, 38.094811000231203 ], [ -87.59775399987025, 38.094379999994068 ], [ -87.598818000425368, 38.041352000020751 ], [ -87.599902999998577, 38.00765199974213 ], [ -87.646315999763331, 38.008549999752155 ], [ -87.698328999991233, 38.00822000020235 ], [ -87.698340999686792, 38.011329000332317 ] ] ] } },
{ "type": "Feature", "properties": { "AREALAND": 107375925, "AREAWATER": 870310, "BASENAME": "Scott", "CENTLAT": "+38.1231024", "CENTLON": "-087.5336455", "CNECTA": null, "COUNTY": "163", "COUSUB": "68472", "COUSUBCC": "T1", "COUSUBNS": "00453839", "FUNCSTAT": "A", "GEOID": "1816368472", "HU100": null, "INTPTLAT": "+38.1335243", "INTPTLON": "-087.5342707", "LSADC": "44", "MTFCC": "G4040", "NAME": "Scott township", "NECTA": null, "NECTADIV": null, "OBJECTID": 7252, "OID": "27690405271418", "POP100": null, "STATE": "18", "UR": null }, "geometry": { "type": "Polygon", "coordinates": [ [ [ -87.472662000250338, 38.078165999859237 ], [ -87.598031999704602, 38.080050999895107 ], [ -87.597075000177909, 38.12083499988514 ], [ -87.597260999950748, 38.124505999966942 ], [ -87.59668199981752, 38.167454999678377 ], [ -87.577996999687016, 38.167425999820182 ], [ -87.577958000227284, 38.166929000165126 ], [ -87.536185000127631, 38.166911000222072 ], [ -87.527064999732673, 38.166353999864818 ], [ -87.499599000039254, 38.165739999946247 ], [ -87.467284000443371, 38.165403000114097 ], [ -87.468117000121495, 38.125518999775345 ], [ -87.467912999907, 38.12172899982405 ], [ -87.472093000162872, 38.121740999682423 ], [ -87.472662000250338, 38.078165999859237 ] ] ] } },
{ "type": "Feature", "properties": { "AREALAND": 28237873, "AREAWATER": 454497, "BASENAME": "Pigeon", "CENTLAT": "+37.9739439", "CENTLON": "-087.5692941", "CNECTA": null, "COUNTY": "163", "COUSUB": "59670", "COUSUBCC": "T1", "COUSUBNS": "00453732", "FUNCSTAT": "A", "GEOID": "1816359670", "HU100": null, "INTPTLAT": "+37.9741924", "INTPTLON": "-087.5694345", "LSADC": "44", "MTFCC": "G4040", "NAME": "Pigeon township", "NECTA": null, "NECTADIV": null, "OBJECTID": 7253, "OID": "27690405271417", "POP100": null, "STATE": "18", "UR": null }, "geometry": { "type": "Polygon", "coordinates": [ [ [ -87.610615999954845, 37.944538000253914 ], [ -87.609723999827182, 37.978548999727202 ], [ -87.600544000056104, 37.978424999764862 ], [ -87.599991999687049, 38.003304000186155 ], [ -87.598260000208541, 38.003117000079143 ], [ -87.597954999711718, 38.003700000254241 ], [ -87.598608000363086, 38.004260000167662 ], [ -87.597122000033593, 38.004831999986756 ], [ -87.596024999866501, 38.004722000150267 ], [ -87.59533000028064, 38.004162000226067 ], [ -87.595163999700972, 38.004887999659914 ], [ -87.594455999696308, 38.005201000053937 ], [ -87.594594999613477, 38.005706000274238 ], [ -87.59359500042909, 38.005355000046819 ], [ -87.592511999607396, 38.005618999787636 ], [ -87.592566999858974, 38.004718000165973 ], [ -87.591761999769929, 38.004388999826034 ], [ -87.591539000187197, 38.002629999814495 ], [ -87.590011000024873, 38.00131199981908 ], [ -87.591259999629628, 38.000629999836264 ], [ -87.59102399962805, 38.000168999790432 ], [ -87.591926999626395, 38.000497999951882 ], [ -87.592246000366927, 38.001301000235053 ], [ -87.592967999716976, 38.000838999934153 ], [ -87.593016000295862, 37.999937000093091 ], [ -87.592105999726527, 37.999354999977939 ], [ -87.593931999814671, 37.999419999671368 ], [ -87.594661999560628, 38.000174000257914 ], [ -87.594931999897369, 37.999611999801566 ], [ -87.593550000223246, 37.998717000103447 ], [ -87.5922580000625, 37.997328000274905 ], [ -87.589446000135339, 37.996609000186105 ], [ -87.588979000155121, 37.998338000201983 ], [ -87.586296999924329, 38.002922000038758 ], [ -87.584316999850401, 38.00316800009125 ], [ -87.578907000256351, 38.001584999778309 ], [ -87.578298999810812, 38.001020999778063 ], [ -87.578385999849459, 37.999012999923195 ], [ -87.577875000386598, 37.997860000331457 ], [ -87.573582000152825, 37.994263999764158 ], [ -87.572553999582709, 37.993916000241178 ], [ -87.568585000112336, 37.994604999707107 ], [ -87.566574000076287, 37.996251999989745 ], [ -87.566256000058956, 38.000041000023799 ], [ -87.567083999714214, 38.002535999921548 ], [ -87.566372000409913, 38.003356999743666 ], [ -87.564556000367517, 38.004003999827844 ], [ -87.564380999567035, 38.006234999969266 ], [ -87.563827000446466, 38.007111000093168 ], [ -87.562227000314124, 38.007368000339135 ], [ -87.558821000185162, 38.006227000165545 ], [ -87.557652000048051, 38.006246000228813 ], [ -87.552740000396383, 38.009193000279041 ], [ -87.55096600018679, 38.009666000067057 ], [ -87.548164000305391, 38.009048000172754 ], [ -87.547309999812555, 38.008456999784862 ], [ -87.546621000074467, 38.007338999902053 ], [ -87.547073999811005, 38.006932000221383 ], [ -87.547454999577511, 37.992122999957374 ], [ -87.538336999730703, 37.991836999889799 ], [ -87.53834199975357, 37.99147700018505 ], [ -87.53859399964864, 37.97721699979131 ], [ -87.547745000005719, 37.977193999927799 ], [ -87.548498000216227, 37.92388000022472 ], [ -87.556045000243031, 37.928167999771844 ], [ -87.560895999795335, 37.932113000290407 ], [ -87.564664000322551, 37.93583400019908 ], [ -87.569083999879624, 37.941560000120411 ], [ -87.572792000132409, 37.94847699994795 ], [ -87.573567000084196, 37.951721999724164 ], [ -87.577511000338546, 37.951661000322481 ], [ -87.575141000277256, 37.95548899979314 ], [ -87.574512999740236, 37.958295999667484 ], [ -87.574260000020246, 37.961593999847572 ], [ -87.574403999960296, 37.963576999797297 ], [ -87.575045999842715, 37.965909000174229 ], [ -87.5766369997542, 37.968784000290405 ], [ -87.577809000264367, 37.970198000014648 ], [ -87.581971000078582, 37.973032999892531 ], [ -87.586031999610455, 37.974948999836641 ], [ -87.589564000136136, 37.975345000034203 ], [ -87.595404999725389, 37.974982999687143 ], [ -87.598690000378866, 37.973382999820799 ], [ -87.601390999977923, 37.971306000304295 ], [ -87.603402999838906, 37.966813999790332 ], [ -87.603464999763176, 37.959897999846355 ], [ -87.603904999979221, 37.95698699967884 ], [ -87.604906999711744, 37.954518000249337 ], [ -87.604941999871841, 37.952584000184068 ], [ -87.605589999602046, 37.950143999779598 ], [ -87.607217000396872, 37.947668999825211 ], [ -87.610615999954845, 37.944538000253914 ] ] ] } },
{ "type": "Feature", "properties": { "AREALAND": 76351170, "AREAWATER": 103143, "BASENAME": "Armstrong", "CENTLAT": "+38.1256751", "CENTLON": "-087.6472018", "CNECTA": null, "COUNTY": "163", "COUSUB": "02188", "COUSUBCC": "T1", "COUSUBNS": "00453091", "FUNCSTAT": "A", "GEOID": "1816302188", "HU100": null, "INTPTLAT": "+38.1345706", "INTPTLON": "-087.6467574", "LSADC": "44", "MTFCC": "G4040", "NAME": "Armstrong township", "NECTA": null, "NECTADIV": null, "OBJECTID": 29469, "OID": "27690405271411", "POP100": null, "STATE": "18", "UR": null }, "geometry": { "type": "Polygon", "coordinates": [ [ [ -87.697367000441659, 38.080323000066841 ], [ -87.696774999889655, 38.124843000087751 ], [ -87.688918000241458, 38.124710000131522 ], [ -87.68837400026834, 38.168419000210065 ], [ -87.59668199981752, 38.167454999678377 ], [ -87.597260999950748, 38.124505999966942 ], [ -87.597075000177909, 38.12083499988514 ], [ -87.59775399987025, 38.094379999994068 ], [ -87.634642999907328, 38.094811000231203 ], [ -87.634626000188888, 38.080407999824594 ], [ -87.697367000441659, 38.080323000066841 ] ] ] } },
{ "type": "Feature", "properties": { "AREALAND": 88625469, "AREAWATER": 1558998, "BASENAME": "Knight", "CENTLAT": "+37.9686189", "CENTLON": "-087.4964042", "CNECTA": null, "COUNTY": "163", "COUSUB": "40212", "COUSUBCC": "T1", "COUSUBNS": "00453528", "FUNCSTAT": "A", "GEOID": "1816340212", "HU100": null, "INTPTLAT": "+37.9682098", "INTPTLON": "-087.4967402", "LSADC": "44", "MTFCC": "G4040", "NAME": "Knight township", "NECTA": null, "NECTADIV": null, "OBJECTID": 29470, "OID": "27690405271414", "POP100": null, "STATE": "18", "UR": null }, "geometry": { "type": "Polygon", "coordinates": [ [ [ -87.548482000322707, 37.92403900007367 ], [ -87.547745000005719, 37.977193999927799 ], [ -87.53859399964864, 37.97721699979131 ], [ -87.538494999914448, 37.981478999830209 ], [ -87.538336999730703, 37.991836999889799 ], [ -87.547454999577511, 37.992122999957374 ], [ -87.547073999811005, 38.006932000221383 ], [ -87.546621000074467, 38.007338999902053 ], [ -87.545637999710195, 38.006634999659816 ], [ -87.542131000197202, 38.005958999865939 ], [ -87.541090999931498, 38.004480999822349 ], [ -87.540141000077526, 38.00395200021363 ], [ -87.538417999921549, 38.004132999936594 ], [ -87.536369000250644, 38.005916000217972 ], [ -87.535635000306726, 38.006098999648138 ], [ -87.534267999802893, 38.005980999758435 ], [ -87.531703999572869, 38.004966999657036 ], [ -87.529942999782065, 38.003590000135247 ], [ -87.52713500005288, 38.000234999704496 ], [ -87.527463000115944, 37.998143000195597 ], [ -87.527093000220091, 37.997086000145821 ], [ -87.523152000338825, 37.995520000339681 ], [ -87.521846999759262, 37.995420000153018 ], [ -87.519478000421245, 37.995856000053223 ], [ -87.515405000295473, 37.998308999732885 ], [ -87.513934999859501, 37.998790000270397 ], [ -87.512088999679861, 37.998795000124062 ], [ -87.508776000335601, 37.997961000288221 ], [ -87.507793999796249, 37.998463000042292 ], [ -87.505945999966812, 38.000306000017652 ], [ -87.504950999906981, 38.002409000243809 ], [ -87.505490999682138, 38.004332000301304 ], [ -87.507044999783716, 38.006315000081941 ], [ -87.5074370003192, 38.007326999669026 ], [ -87.507188999723766, 38.00921499990887 ], [ -87.506602999917845, 38.010220999929921 ], [ -87.502739000029464, 38.012526999939311 ], [ -87.501829000358455, 38.012410999915417 ], [ -87.499789000010054, 38.011287999754067 ], [ -87.497921000089136, 38.010926999887594 ], [ -87.496393999751731, 38.011335000121548 ], [ -87.49515799966747, 38.012486000031174 ], [ -87.49380500030567, 38.015897000169119 ], [ -87.492770000062862, 38.019837999971607 ], [ -87.492771999712673, 38.021717999736431 ], [ -87.493796000084828, 38.023004999704575 ], [ -87.493847999963364, 38.023488000114199 ], [ -87.492734999902765, 38.024240000336576 ], [ -87.492963000406704, 38.025966000143185 ], [ -87.491939999859468, 38.027380000308248 ], [ -87.48920099972726, 38.028678000321456 ], [ -87.486033999972889, 38.029246999724478 ], [ -87.484927999584968, 38.028816000187184 ], [ -87.483145000052858, 38.026728999716177 ], [ -87.480297999965615, 38.025869000090978 ], [ -87.47921000001935, 38.026898999821213 ], [ -87.479086000170781, 38.030151999998374 ], [ -87.475618000117535, 38.030841999826144 ], [ -87.475583999782359, 38.032542999981224 ], [ -87.474896999694082, 38.033255000126204 ], [ -87.473150000146987, 38.032596000332767 ], [ -87.471713000221271, 38.032678000267133 ], [ -87.470953000338085, 38.03305299967726 ], [ -87.470606000008445, 38.033585000165651 ], [ -87.470688000024211, 38.035023000336665 ], [ -87.44986700018417, 38.035170000218578 ], [ -87.450027000017741, 38.030650999933691 ], [ -87.449411000074576, 38.003845000319799 ], [ -87.450283000110787, 37.983674999979087 ], [ -87.450011000124206, 37.97663800023318 ], [ -87.450707000433312, 37.947762999878947 ], [ -87.45121899972105, 37.940808000143313 ], [ -87.462089000036173, 37.935474999722885 ], [ -87.469328000091394, 37.930663999711051 ], [ -87.469294999581109, 37.930076999821424 ], [ -87.470578000419366, 37.929731000229502 ], [ -87.476348999688412, 37.926529000241686 ], [ -87.480766999595659, 37.923580999702388 ], [ -87.487501999860726, 37.91808199972013 ], [ -87.497630999660899, 37.910698999964964 ], [ -87.503467000125596, 37.907893000083391 ], [ -87.506364000441565, 37.907035000319716 ], [ -87.506537999620505, 37.906676999664114 ], [ -87.509720000341829, 37.906027999871284 ], [ -87.511018000350361, 37.906191999818802 ], [ -87.517903000403265, 37.911082000270284 ], [ -87.521999000095235, 37.913307999864912 ], [ -87.53176700022037, 37.916303000028805 ], [ -87.548482000322707, 37.92403900007367 ] ] ] } }
]
}
